zipcode,city,state
14859,Lockwood,NY
1945,Marblehead,MA
95452,Kenwood,CA
56431,Aitkin,MN
58626,Dunn Center,ND
21054,Gambrills,MD
56713,Argyle,MN
4090,Wells,ME
92333,Fawnskin,CA
55786,Taconite,MN
26338,Camden,WV
67518,Beeler,KS
77701,Beaumont,TX
50058,Coon Rapids,IA
30720,Dalton,GA
26074,West Liberty,WV
17045,Liverpool,PA
67349,Howard,KS
16882,Woodward,PA
81424,Nucla,CO
50142,Le Grand,IA
65556,Richland,MO
54654,Seneca,WI
7722,Colts Neck,NJ
70431,Bush,LA
19075,Oreland,PA
92341,Green Valley Lake,CA
95960,North San Juan,CA
33503,Balm,FL
87010,Cerrillos,NM
16054,Saint Petersburg,PA
5766,Ripton,VT
6112,Hartford,CT
71333,Evergreen,LA
49070,Martin,MI
50039,Bouton,IA
73045,Harrah,OK
55703,Angora,MN
87040,Paguate,NM
22942,Gordonsville,VA
33980,Punta Gorda,FL
85141,Picacho,AZ
13108,Marcellus,NY
31527,Jekyll Island,GA
18054,Green Lane,PA
78405,Corpus Christi,TX
49045,Decatur,MI
93641,Miramonte,CA
38321,Cedar Grove,TN
39641,Jayess,MS
56146,Kanaranzi,MN
48038,Clinton Township,MI
97492,Westfir,OR
91423,Sherman Oaks,CA
627,Camuy,PR
83313,Bellevue,ID
74745,Idabel,OK
23313,Capeville,VA
19425,Chester Springs,PA
42361,Olaton,KY
95912,Arbuckle,CA
52155,Lime Springs,IA
43142,Milledgeville,OH
33311,Fort Lauderdale,FL
25019,Bickmore,WV
39359,Sebastopol,MS
75708,Tyler,TX
23060,Glen Allen,VA
65072,Rocky Mount,MO
86336,Sedona,AZ
15480,Smock,PA
44223,Cuyahoga Falls,OH
8051,Mantua,NJ
44906,Mansfield,OH
79044,Hartley,TX
64118,Kansas City,MO
6517,Hamden,CT
52560,Floris,IA
43064,Plain City,OH
59301,Miles City,MT
66224,Overland Park,KS
93271,Three Rivers,CA
36370,Pansey,AL
2124,Dorchester Center,MA
55441,Minneapolis,MN
17922,Auburn,PA
65638,Drury,MO
69030,Haigler,NE
35559,Glen Allen,AL
61261,Lyndon,IL
95585,Leggett,CA
66608,Topeka,KS
55029,Grandy,MN
86343,Crown King,AZ
13362,Knoxboro,NY
85226,Chandler,AZ
49632,Falmouth,MI
12161,South Bethlehem,NY
76577,Thorndale,TX
98513,Olympia,WA
74859,Okemah,OK
26508,Morgantown,WV
83330,Gooding,ID
85938,Springerville,AZ
62550,Moweaqua,IL
13074,Hannibal,NY
50570,Ottosen,IA
66941,Esbon,KS
75475,Randolph,TX
63474,Wyaconda,MO
90037,Los Angeles,CA
38258,Trezevant,TN
50255,Thornburg,IA
62081,Rockbridge,IL
49878,Rapid River,MI
32009,Bryceville,FL
4634,Franklin,ME
62450,Olney,IL
45322,Englewood,OH
21740,Hagerstown,MD
85375,Sun City West,AZ
96713,Hana,HI
1244,Mill River,MA
32732,Geneva,FL
60188,Carol Stream,IL
95053,Santa Clara,CA
33612,Tampa,FL
76085,Weatherford,TX
38029,Ellendale,TN
42232,Gracey,KY
95321,Groveland,CA
51555,Missouri Valley,IA
47874,Rosedale,IN
62410,Allendale,IL
70814,Baton Rouge,LA
68375,Hubbell,NE
52345,Urbana,IA
2134,Allston,MA
92007,Cardiff By The Sea,CA
91932,Imperial Beach,CA
48095,Washington,MI
74016,Chelsea,OK
68361,Geneva,NE
73119,Oklahoma City,OK
56514,Barnesville,MN
65066,Owensville,MO
33955,Punta Gorda,FL
29054,Gilbert,SC
31410,Savannah,GA
84180,Salt Lake City,UT
14479,Knowlesville,NY
91701,Rancho Cucamonga,CA
5060,Randolph,VT
50650,Lamont,IA
78410,Corpus Christi,TX
81335,Yellow Jacket,CO
82324,Elk Mountain,WY
74760,Spencerville,OK
68331,Cortland,NE
93955,Seaside,CA
16426,McKean,PA
42354,McHenry,KY
80814,Divide,CO
30413,Bartow,GA
16101,New Castle,PA
11224,Brooklyn,NY
27054,Woodleaf,NC
85704,Tucson,AZ
6401,Ansonia,CT
53941,La Valle,WI
97225,Portland,OR
83645,Midvale,ID
24716,Bud,WV
25913,Ravencliff,WV
21737,Glenelg,MD
26681,Nettie,WV
12222,Albany,NY
36278,Wedowee,AL
70659,Rosepine,LA
79381,Wilson,TX
99139,Ione,WA
28120,Mount Holly,NC
45330,Gratis,OH
46070,Summitville,IN
33150,Miami,FL
54410,Arpin,WI
3604,Drewsville,NH
47918,Attica,IN
98273,Mount Vernon,WA
80023,Broomfield,CO
57224,Claire City,SD
55037,Hinckley,MN
92134,San Diego,CA
11937,East Hampton,NY
37014,Arrington,TN
24651,Tazewell,VA
71435,Grayson,LA
47362,New Castle,IN
76639,Dawson,TX
6511,New Haven,CT
76951,Sterling City,TX
95604,Auburn,CA
71115,Shreveport,LA
3034,Candia,NH
23841,Dinwiddie,VA
98382,Sequim,WA
56318,Burtrum,MN
97801,Pendleton,OR
28714,Burnsville,NC
45212,Cincinnati,OH
90033,Los Angeles,CA
61479,Speer,IL
24260,Honaker,VA
99744,Anderson,AK
27526,Fuquay Varina,NC
67159,Zenda,KS
15902,Johnstown,PA
99333,Hooper,WA
3104,Manchester,NH
77507,Pasadena,TX
43410,Clyde,OH
29003,Bamberg,SC
75558,Cookville,TX
97392,Turner,OR
65473,Fort Leonard Wood,MO
44875,Shelby,OH
40379,Stamping Ground,KY
75224,Dallas,TX
1702,Framingham,MA
98531,Centralia,WA
55955,Mantorville,MN
49092,Tekonsha,MI
75968,Pineland,TX
60109,Burlington,IL
19941,Ellendale,DE
46540,Middlebury,IN
12029,Canaan,NY
93291,Visalia,CA
8560,Titusville,NJ
23452,Virginia Beach,VA
97343,Eddyville,OR
70570,Opelousas,LA
25951,Hinton,WV
26426,Salem,WV
64743,East Lynne,MO
76842,Fredonia,TX
37387,Tracy City,TN
64859,Reeds,MO
39736,Artesia,MS
65479,Hartshorn,MO
89501,Reno,NV
56729,Halma,MN
20551,Washington,DC
27288,Eden,NC
63012,Barnhart,MO
55014,Circle Pines,MN
1378,Warwick,MA
47512,Bicknell,IN
87574,Tesuque,NM
61020,Davis Junction,IL
98280,Orcas,WA
96790,Kula,HI
45458,Dayton,OH
78598,Port Mansfield,TX
4851,Matinicus,ME
45156,Neville,OH
99669,Soldotna,AK
90250,Hawthorne,CA
74036,Inola,OK
92322,Cedarpines Park,CA
29058,Heath Springs,SC
90022,Los Angeles,CA
97214,Portland,OR
61330,La Moille,IL
62832,Du Quoin,IL
21536,Grantsville,MD
58652,Richardton,ND
59469,Raynesford,MT
24566,Keeling,VA
51011,Chatsworth,IA
56145,Jeffers,MN
80109,Castle Rock,CO
51526,Crescent,IA
1770,Sherborn,MA
38625,Dumas,MS
55422,Minneapolis,MN
79839,Fort Hancock,TX
24944,Green Bank,WV
55305,Hopkins,MN
81121,Arboles,CO
20130,Paris,VA
99223,Spokane,WA
51053,Schaller,IA
71031,Goldonna,LA
96044,Hornbrook,CA
53154,Oak Creek,WI
68832,Doniphan,NE
38041,Henning,TN
83112,Bedford,WY
24502,Lynchburg,VA
49886,Spalding,MI
58361,Pekin,ND
44253,Litchfield,OH
18912,Buckingham,PA
43607,Toledo,OH
43014,Danville,OH
46239,Indianapolis,IN
49950,Mohawk,MI
53207,Milwaukee,WI
77045,Houston,TX
44147,Broadview Heights,OH
39307,Meridian,MS
44613,Brewster,OH
41649,Martin,KY
37415,Chattanooga,TN
54559,Saxon,WI
84601,Provo,UT
12056,Duanesburg,NY
34639,Land O'Lakes,FL
38260,Troy,TN
62571,Tower Hill,IL
59404,Great Falls,MT
35550,Cordova,AL
94305,Stanford,CA
95324,Hilmar,CA
79323,Denver City,TX
97604,Crater Lake,OR
38952,Schlater,MS
41701,Hazard,KY
7043,Montclair,NJ
77651,Port Neches,TX
60104,Bellwood,IL
78223,San Antonio,TX
83123,La Barge,WY
77483,Wadsworth,TX
52501,Ottumwa,IA
29164,Wagener,SC
3221,Bradford,NH
51531,Elk Horn,IA
92267,Parker Dam,CA
15368,Vestaburg,PA
12106,Kinderhook,NY
12008,Alplaus,NY
41268,West Van Lear,KY
33782,Pinellas Park,FL
47123,Grantsburg,IN
72916,Fort Smith,AR
23430,Smithfield,VA
72165,Thida,AR
95404,Santa Rosa,CA
42101,Bowling Green,KY
72722,Decatur,AR
67004,Argonia,KS
21545,Mount Savage,MD
36258,Delta,AL
72935,Dyer,AR
72949,Ozark,AR
46146,Homer,IN
48846,Ionia,MI
54772,Wheeler,WI
58384,Willow City,ND
55027,Goodhue,MN
52756,Long Grove,IA
50210,New Virginia,IA
78883,Tarpley,TX
64778,Richards,MO
26366,Haywood,WV
63656,Middle Brook,MO
67013,Belle Plaine,KS
79357,Ralls,TX
60613,Chicago,IL
24523,Bedford,VA
43617,Toledo,OH
45403,Dayton,OH
97532,Merlin,OR
85629,Sahuarita,AZ
26201,Buckhannon,WV
35901,Gadsden,AL
4740,Easton,ME
49872,Perkins,MI
16680,Smithmill,PA
55736,Floodwood,MN
59632,Boulder,MT
52576,Ollie,IA
55347,Eden Prairie,MN
51632,Clarinda,IA
55968,Reads Landing,MN
71223,Bonita,LA
84315,Hooper,UT
65276,Pilot Grove,MO
30263,Newnan,GA
97367,Lincoln City,OR
92629,Dana Point,CA
1507,Charlton,MA
72415,Black Rock,AR
83220,Bern,ID
10032,New York,NY
80463,McCoy,CO
23845,Ebony,VA
16647,Hesston,PA
63045,Earth City,MO
78059,Natalia,TX
33068,Pompano Beach,FL
93550,Palmdale,CA
20814,Bethesda,MD
76648,Hubbard,TX
70085,Saint Bernard,LA
64493,Turney,MO
85608,Douglas,AZ
18834,New Milford,PA
66203,Shawnee,KS
72520,Camp,AR
94116,San Francisco,CA
98225,Bellingham,WA
45415,Dayton,OH
96727,Honokaa,HI
27608,Raleigh,NC
73003,Edmond,OK
88203,Roswell,NM
63385,Wentzville,MO
12721,Bloomingburg,NY
49745,Hessel,MI
69355,Melbeta,NE
48315,Utica,MI
95356,Modesto,CA
74943,Lequire,OK
49099,White Pigeon,MI
55434,Minneapolis,MN
71353,Melville,LA
58702,Minot,ND
39044,Braxton,MS
21754,Ijamsville,MD
62956,Karnak,IL
70740,Grosse Tete,LA
38375,Selmer,TN
43720,Blue Rock,OH
14134,Sardinia,NY
78620,Dripping Springs,TX
48331,Farmington,MI
46346,Kingsford Heights,IN
71438,Hineston,LA
68715,Battle Creek,NE
28338,Ellerbe,NC
52141,Elgin,IA
55124,Saint Paul,MN
62880,Saint Peter,IL
57371,Ree Heights,SD
32054,Lake Butler,FL
63956,Patterson,MO
17097,Wiconisco,PA
50586,Somers,IA
99622,Kwigillingok,AK
73857,Sharon,OK
97906,Harper,OR
79244,Matador,TX
62086,Sorento,IL
18623,Laceyville,PA
27943,Hatteras,NC
33755,Clearwater,FL
52233,Hiawatha,IA
26136,Big Bend,WV
35034,Brent,AL
99122,Davenport,WA
1754,Maynard,MA
79406,Lubbock,TX
28443,Hampstead,NC
29038,Cope,SC
42762,Millwood,KY
62901,Carbondale,IL
48386,White Lake,MI
61362,Spring Valley,IL
68791,Wisner,NE
43224,Columbus,OH
23954,Meherrin,VA
38224,Cottage Grove,TN
40504,Lexington,KY
53580,Rewey,WI
73718,Ames,OK
13673,Philadelphia,NY
74429,Coweta,OK
70510,Abbeville,LA
70358,Grand Isle,LA
33763,Clearwater,FL
75041,Garland,TX
73556,Martha,OK
71234,Downsville,LA
42404,Clay,KY
61539,Kingston Mines,IL
87026,Laguna,NM
97136,Rockaway Beach,OR
56374,Saint Joseph,MN
70761,Norwood,LA
33856,Nalcrest,FL
95837,Sacramento,CA
40513,Lexington,KY
55435,Minneapolis,MN
80488,Steamboat Springs,CO
92372,Pinon Hills,CA
79562,Tuscola,TX
1940,Lynnfield,MA
7922,Berkeley Heights,NJ
79261,Turkey,TX
44721,Canton,OH
49546,Grand Rapids,MI
19390,West Grove,PA
35647,Lester,AL
78210,San Antonio,TX
79602,Abilene,TX
34452,Inverness,FL
96705,Eleele,HI
44640,Limaville,OH
33060,Pompano Beach,FL
61872,Sadorus,IL
76538,Jonesboro,TX
61863,Pesotum,IL
8204,Cape May,NJ
40330,Harrodsburg,KY
48651,Prudenville,MI
54747,Independence,WI
16345,Russell,PA
49822,Deerton,MI
77473,San Felipe,TX
99590,Grayling,AK
93226,Glennville,CA
53577,Plain,WI
67360,Peru,KS
61447,Kirkwood,IL
21866,Tylerton,MD
38047,Lenox,TN
86409,Kingman,AZ
28609,Catawba,NC
32332,Gretna,FL
16670,Queen,PA
35546,Berry,AL
87461,Sanostee,NM
65246,Dalton,MO
98849,Riverside,WA
61420,Blandinsville,IL
33004,Dania,FL
98822,Entiat,WA
41085,Silver Grove,KY
75202,Dallas,TX
70584,Sunset,LA
98365,Port Ludlow,WA
64645,Harris,MO
65080,Tebbetts,MO
68716,Beemer,NE
63787,Zalma,MO
53549,Jefferson,WI
16652,Huntingdon,PA
99786,Ambler,AK
74137,Tulsa,OK
30733,Plainville,GA
61739,Fairbury,IL
53027,Hartford,WI
92626,Costa Mesa,CA
38577,Pall Mall,TN
63031,Florissant,MO
8401,Atlantic City,NJ
65618,Brixey,MO
79231,Dougherty,TX
28768,Pisgah Forest,NC
97341,Depoe Bay,OR
57055,Renner,SD
69143,Hershey,NE
98671,Washougal,WA
27562,New Hill,NC
2584,Nantucket,MA
98050,Preston,WA
46186,Wilkinson,IN
28139,Rutherfordton,NC
68004,Bancroft,NE
54427,Eland,WI
45033,Hooven,OH
11795,West Islip,NY
1540,Oxford,MA
89027,Mesquite,NV
97026,Gervais,OR
57324,Cavour,SD
37061,Erin,TN
39701,Columbus,MS
43526,Hicksville,OH
59520,Big Sandy,MT
86011,Flagstaff,AZ
30627,Carlton,GA
57373,Saint Lawrence,SD
37843,Parrottsville,TN
670,Las Marias,PR
31711,Andersonville,GA
52757,Low Moor,IA
13485,West Edmeston,NY
87505,Santa Fe,NM
3060,Nashua,NH
28125,Mount Ulla,NC
10154,New York,NY
54558,Saint Germain,WI
90302,Inglewood,CA
74477,Wagoner,OK
14468,Hilton,NY
76537,Jarrell,TX
87109,Albuquerque,NM
14471,Honeoye,NY
6260,Putnam,CT
56149,Lake Benton,MN
95633,Garden Valley,CA
63459,New London,MO
10931,Hillburn,NY
31520,Brunswick,GA
4763,Oakfield,ME
87538,Ilfeld,NM
96792,Waianae,HI
79092,Vega,TX
3773,Newport,NH
24614,Grundy,VA
40511,Lexington,KY
25202,Tornado,WV
13060,Elbridge,NY
83226,Challis,ID
94552,Castro Valley,CA
75229,Dallas,TX
44672,Sebring,OH
83340,Ketchum,ID
31831,Waverly Hall,GA
91205,Glendale,CA
36273,Ranburne,AL
76228,Bellevue,TX
47862,Montezuma,IN
72315,Blytheville,AR
43447,Millbury,OH
10501,Amawalk,NY
73729,Cleo Springs,OK
95436,Forestville,CA
14055,East Concord,NY
33815,Lakeland,FL
55455,Minneapolis,MN
73139,Oklahoma City,OK
88116,Elida,NM
28376,Raeford,NC
30258,Molena,GA
22824,Edinburg,VA
29657,Liberty,SC
50156,Madrid,IA
88063,Sunland Park,NM
32798,Zellwood,FL
53214,Milwaukee,WI
66227,Lenexa,KS
99748,Kaltag,AK
82061,Horse Creek,WY
71405,Ball,LA
48069,Pleasant Ridge,MI
91935,Jamul,CA
94951,Penngrove,CA
24815,Berwind,WV
45064,Somerville,OH
41825,Jackhorn,KY
25837,Edmond,WV
42134,Franklin,KY
3882,Effingham,NH
56637,Talmoon,MN
13608,Antwerp,NY
89421,McDermitt,NV
44274,Sharon Center,OH
54888,Trego,WI
92314,Big Bear City,CA
8072,Quinton,NJ
35094,Leeds,AL
65453,Cuba,MO
26208,Camden On Gauley,WV
58451,Hurdsfield,ND
41039,Ewing,KY
48419,Carsonville,MI
60651,Chicago,IL
31532,Denton,GA
49717,Burt Lake,MI
35020,Bessemer,AL
15447,Isabella,PA
50531,Dolliver,IA
28721,Clyde,NC
61801,Urbana,IL
62624,Browning,IL
16145,Sandy Lake,PA
40946,Green Road,KY
3253,Meredith,NH
68371,Henderson,NE
66735,Franklin,KS
30619,Arnoldsville,GA
74604,Ponca City,OK
6870,Old Greenwich,CT
37334,Fayetteville,TN
99576,Dillingham,AK
46057,Michigantown,IN
12913,Bloomingdale,NY
85123,Arizona City,AZ
11754,Kings Park,NY
23420,Painter,VA
29556,Kingstree,SC
70762,Oscar,LA
32712,Apopka,FL
88340,Mescalero,NM
29909,Okatie,SC
22025,Dumfries,VA
29154,Sumter,SC
38864,Randolph,MS
97868,Pilot Rock,OR
21162,White Marsh,MD
29591,Scranton,SC
62234,Collinsville,IL
56221,Chokio,MN
28072,Granite Quarry,NC
55449,Minneapolis,MN
63084,Union,MO
54927,Butte Des Morts,WI
32228,Jacksonville,FL
41146,Hitchins,KY
74115,Tulsa,OK
82642,Lysite,WY
2882,Narragansett,RI
84341,Logan,UT
20260,Washington,DC
85207,Mesa,AZ
22989,Woodberry Forest,VA
56081,Saint James,MN
21717,Buckeystown,MD
60123,Elgin,IL
56249,Holloway,MN
97204,Portland,OR
78840,Del Rio,TX
79789,Wink,TX
95987,Williams,CA
27847,Kelford,NC
62513,Blue Mound,IL
95391,Tracy,CA
30165,Rome,GA
55343,Hopkins,MN
91740,Glendora,CA
36875,Seale,AL
50314,Des Moines,IA
76310,Wichita Falls,TX
20659,Mechanicsville,MD
87022,Isleta,NM
72068,Higginson,AR
21622,Church Creek,MD
33314,Fort Lauderdale,FL
36870,Phenix City,AL
42044,Gilbertsville,KY
24220,Birchleaf,VA
82070,Laramie,WY
75792,Winona,TX
75670,Marshall,TX
53191,Williams Bay,WI
5824,Concord,VT
40222,Louisville,KY
64134,Kansas City,MO
62995,Vienna,IL
58047,Horace,ND
13473,Turin,NY
69348,Hemingford,NE
80517,Estes Park,CO
56047,Huntley,MN
76093,Rio Vista,TX
39577,Wiggins,MS
21930,Georgetown,MD
29426,Adams Run,SC
37877,Talbott,TN
55398,Zimmerman,MN
67876,Spearville,KS
80104,Castle Rock,CO
81646,Molina,CO
41635,Harold,KY
29201,Columbia,SC
68339,Denton,NE
76522,Copperas Cove,TX
44094,Willoughby,OH
79105,Amarillo,TX
45648,Lucasville,OH
76435,Carbon,TX
92313,Grand Terrace,CA
58369,Saint John,ND
13620,Castorland,NY
77031,Houston,TX
60190,Winfield,IL
27291,Leasburg,NC
4635,Frenchboro,ME
99790,Fairbanks,AK
64873,Wentworth,MO
76712,Woodway,TX
82730,Upton,WY
62613,Athens,IL
97639,Sprague River,OR
98077,Woodinville,WA
55787,Tamarack,MN
32114,Daytona Beach,FL
55352,Jordan,MN
46545,Mishawaka,IN
62531,Edinburg,IL
37715,Clairfield,TN
44817,Bloomdale,OH
49651,Lake City,MI
4475,Passadumkeag,ME
19422,Blue Bell,PA
77201,Houston,TX
98588,Tahuya,WA
39478,Sandy Hook,MS
53222,Milwaukee,WI
82711,Alva,WY
11947,Jamesport,NY
45686,Vinton,OH
76463,Mingus,TX
22733,Rapidan,VA
38945,Greenwood,MS
79052,Kress,TX
25928,Stephenson,WV
32903,Indialantic,FL
56223,Clarkfield,MN
44827,Crestline,OH
15460,Martin,PA
31096,Wrightsville,GA
22207,Arlington,VA
50516,Badger,IA
46580,Warsaw,IN
4551,Bremen,ME
28720,Chimney Rock,NC
50532,Duncombe,IA
95320,Escalon,CA
96818,Honolulu,HI
31778,Pavo,GA
68620,Albion,NE
97057,Shaniko,OR
16154,Transfer,PA
23923,Charlotte Court House,VA
16420,Grand Valley,PA
57477,Turton,SD
35621,Eva,AL
21212,Baltimore,MD
46914,Bunker Hill,IN
55407,Minneapolis,MN
19801,Wilmington,DE
59053,Martinsdale,MT
76943,Ozona,TX
77340,Huntsville,TX
71369,Simmesport,LA
21211,Baltimore,MD
50029,Bayard,IA
30904,Augusta,GA
35179,Vinemont,AL
7924,Bernardsville,NJ
98932,Granger,WA
58576,Underwood,ND
62263,Nashville,IL
2672,West Hyannisport,MA
42746,Hardyville,KY
97838,Hermiston,OR
39532,Biloxi,MS
55442,Minneapolis,MN
47561,Oaktown,IN
15623,Claridge,PA
38257,South Fulton,TN
60948,Loda,IL
99029,Reardan,WA
78043,Laredo,TX
26323,Anmoore,WV
98333,Fox Island,WA
78602,Bastrop,TX
87718,Eagle Nest,NM
52172,Waukon,IA
93638,Madera,CA
68517,Lincoln,NE
35959,Cedar Bluff,AL
39477,Sandersville,MS
30474,Vidalia,GA
68763,Oneill,NE
55385,Stewart,MN
31091,Unadilla,GA
67869,Plains,KS
48657,Sanford,MI
61607,Peoria,IL
54170,Shiocton,WI
68403,Manley,NE
15761,Mentcle,PA
56063,Madison Lake,MN
47244,Hartsville,IN
64865,Seneca,MO
68624,Bellwood,NE
63932,Broseley,MO
57380,Wagner,SD
96750,Kealakekua,HI
70748,Jackson,LA
48096,Ray,MI
31207,Macon,GA
6470,Newtown,CT
56379,Sauk Rapids,MN
68810,Alda,NE
77389,Spring,TX
46773,Monroeville,IN
50599,Woolstock,IA
98617,Dallesport,WA
80535,Laporte,CO
74723,Bennington,OK
37307,Benton,TN
50067,Decatur,IA
52766,Nichols,IA
92147,San Diego,CA
70578,Rayne,LA
96130,Susanville,CA
13613,Brasher Falls,NY
10549,Mount Kisco,NY
30046,Lawrenceville,GA
72543,Heber Springs,AR
81326,Hesperus,CO
25177,Saint Albans,WV
15617,Arona,PA
32771,Sanford,FL
26369,Hepzibah,WV
15714,Northern Cambria,PA
5255,Manchester Center,VT
14720,Celoron,NY
57110,Sioux Falls,SD
65704,Mansfield,MO
78607,Bluffton,TX
79001,Adrian,TX
8251,Villas,NJ
48728,Curran,MI
51004,Anthon,IA
82639,Kaycee,WY
77853,Dime Box,TX
50321,Des Moines,IA
30338,Atlanta,GA
63664,Potosi,MO
17037,Ickesburg,PA
78231,San Antonio,TX
5761,Pawlet,VT
57370,Pukwana,SD
93901,Salinas,CA
55403,Minneapolis,MN
98465,Tacoma,WA
2129,Charlestown,MA
81429,Paradox,CO
60927,Clifton,IL
32202,Jacksonville,FL
28278,Charlotte,NC
74450,Oktaha,OK
71861,Taylor,AR
92250,Holtville,CA
77047,Houston,TX
51533,Emerson,IA
74085,Yale,OK
83840,Kootenai,ID
59853,Noxon,MT
75566,Marietta,TX
83451,Teton,ID
66111,Kansas City,KS
34205,Bradenton,FL
53036,Ixonia,WI
67056,Halstead,KS
67473,Osborne,KS
48507,Flint,MI
61773,Sibley,IL
26187,Williamstown,WV
97224,Portland,OR
37146,Pleasant View,TN
76905,San Angelo,TX
88020,Animas,NM
95120,San Jose,CA
71118,Shreveport,LA
7920,Basking Ridge,NJ
78648,Luling,TX
40844,Hoskinston,KY
20119,Catlett,VA
73440,Lebanon,OK
60970,Watseka,IL
2660,South Dennis,MA
54451,Medford,WI
16503,Erie,PA
47438,Jasonville,IN
55719,Chisholm,MN
45332,Hollansburg,OH
68346,Dunbar,NE
63071,Richwoods,MO
43830,Nashport,OH
8091,West Berlin,NJ
84627,Ephraim,UT
47881,Staunton,IN
99137,Hunters,WA
60004,Arlington Heights,IL
34449,Inglis,FL
86334,Paulden,AZ
89008,Caliente,NV
30180,Villa Rica,GA
53545,Janesville,WI
42261,Morgantown,KY
24153,Salem,VA
52347,Victor,IA
32447,Marianna,FL
41563,Shelby Gap,KY
29127,Prosperity,SC
63112,Saint Louis,MO
68122,Omaha,NE
92870,Placentia,CA
40995,Trosper,KY
76930,Barnhart,TX
79707,Midland,TX
38001,Alamo,TN
76858,Melvin,TX
99585,Marshall,AK
58365,Rocklake,ND
45831,Continental,OH
48729,Deford,MI
45112,Chilo,OH
68504,Lincoln,NE
68843,Hampton,NE
1060,Northampton,MA
21076,Hanover,MD
87063,Willard,NM
1833,Georgetown,MA
4087,Waterboro,ME
27541,Hurdle Mills,NC
3442,Bennington,NH
83121,Frontier,WY
76932,Big Lake,TX
77407,Richmond,TX
91016,Monrovia,CA
67213,Wichita,KS
55079,Stacy,MN
53122,Elm Grove,WI
41099,Newport,KY
78332,Alice,TX
84765,Santa Clara,UT
54486,Tigerton,WI
37087,Lebanon,TN
55117,Saint Paul,MN
3276,Tilton,NH
65781,Willard,MO
62292,Tilden,IL
96047,Igo,CA
41056,Maysville,KY
14012,Barker,NY
15750,Josephine,PA
14860,Lodi,NY
70543,Iota,LA
88072,Vado,NM
55330,Elk River,MN
40206,Louisville,KY
56567,New York Mills,MN
4956,New Vineyard,ME
68659,Rogers,NE
35172,Trafford,AL
18062,Macungie,PA
37865,Seymour,TN
82649,Shoshoni,WY
49916,Chassell,MI
4252,Lisbon Falls,ME
68124,Omaha,NE
55929,Dover,MN
84720,Cedar City,UT
56116,Beaver Creek,MN
22030,Fairfax,VA
29932,Luray,SC
24966,Renick,WV
41144,Greenup,KY
68521,Lincoln,NE
1921,Boxford,MA
21920,Elk Mills,MD
44084,Rock Creek,OH
55749,Holyoke,MN
38327,Crump,TN
17098,Williamstown,PA
98855,Tonasket,WA
4021,Cumberland Center,ME
12068,Fonda,NY
28448,Kelly,NC
48629,Houghton Lake,MI
95823,Sacramento,CA
72058,Greenbrier,AR
85085,Phoenix,AZ
17235,Marion,PA
22180,Vienna,VA
62640,Girard,IL
57319,Bridgewater,SD
58572,Sterling,ND
54928,Caroline,WI
42541,Middleburg,KY
93950,Pacific Grove,CA
72821,Altus,AR
74110,Tulsa,OK
68132,Omaha,NE
62466,Sumner,IL
56131,Fulda,MN
78752,Austin,TX
14891,Watkins Glen,NY
95664,Pilot Hill,CA
29128,Rembert,SC
55430,Minneapolis,MN
53587,South Wayne,WI
56252,Kerkhoven,MN
71432,Georgetown,LA
2892,West Kingston,RI
33418,Palm Beach Gardens,FL
62555,Owaneco,IL
44275,Spencer,OH
36255,Cragford,AL
12729,Cuddebackville,NY
80726,Crook,CO
25637,Mount Gay,WV
17013,Carlisle,PA
2802,Albion,RI
77338,Humble,TX
31907,Columbus,GA
22936,Earlysville,VA
55965,Preston,MN
41763,Slemp,KY
20009,Washington,DC
30307,Atlanta,GA
76118,Fort Worth,TX
80425,Buffalo Creek,CO
11360,Bayside,NY
75148,Malakoff,TX
57213,Astoria,SD
59063,Park City,MT
97456,Monroe,OR
26036,Dallas,WV
81643,Mesa,CO
49826,Rumely,MI
3816,Center Tuftonboro,NH
17566,Quarryville,PA
3575,Bretton Woods,NH
77381,Spring,TX
47649,Francisco,IN
95405,Santa Rosa,CA
65589,Yukon,MO
93108,Santa Barbara,CA
16059,Valencia,PA
37052,Cunningham,TN
16323,Franklin,PA
30535,Demorest,GA
16745,Rixford,PA
21131,Phoenix,MD
4441,Greenville,ME
64067,Lexington,MO
73458,Springer,OK
74845,Hanna,OK
39108,McCool,MS
21632,Federalsburg,MD
40374,Sharpsburg,KY
30127,Powder Springs,GA
7849,Lake Hopatcong,NJ
79902,El Paso,TX
99826,Gustavus,AK
49246,Horton,MI
63548,Lancaster,MO
47546,Jasper,IN
41725,Carrie,KY
37338,Graysville,TN
54023,Roberts,WI
59642,Ringling,MT
55066,Red Wing,MN
72430,Greenway,AR
62836,Ewing,IL
30735,Resaca,GA
74949,Muse,OK
52042,Edgewood,IA
39180,Vicksburg,MS
74801,Shawnee,OK
2738,Marion,MA
17948,Mahanoy City,PA
32311,Tallahassee,FL
45693,West Union,OH
54120,Fence,WI
22801,Harrisonburg,VA
37057,Dixon Springs,TN
32208,Jacksonville,FL
66044,Lawrence,KS
15344,Jefferson,PA
33953,Port Charlotte,FL
64463,King City,MO
92154,San Diego,CA
83353,Sun Valley,ID
84066,Roosevelt,UT
33954,Port Charlotte,FL
62870,Odin,IL
14217,Buffalo,NY
97544,Williams,OR
17547,Marietta,PA
43938,Mingo Junction,OH
73105,Oklahoma City,OK
12955,Lyon Mountain,NY
27607,Raleigh,NC
61473,Roseville,IL
42539,Liberty,KY
74875,Tryon,OK
37326,Ducktown,TN
91948,Mount Laguna,CA
83615,Donnelly,ID
72921,Alma,AR
21864,Stockton,MD
39212,Jackson,MS
65501,Jadwin,MO
32312,Tallahassee,FL
40242,Louisville,KY
13045,Cortland,NY
68841,Giltner,NE
75088,Rowlett,TX
23075,Henrico,VA
61379,Wyanet,IL
55101,Saint Paul,MN
49891,Trenary,MI
4275,Roxbury,ME
17217,Concord,PA
64018,Camden Point,MO
49766,Ossineke,MI
61081,Sterling,IL
59214,Brockway,MT
67483,Tampa,KS
72176,Ward,AR
60171,River Grove,IL
85730,Tucson,AZ
17302,Airville,PA
58656,Taylor,ND
72118,North Little Rock,AR
93285,Wofford Heights,CA
25088,Glen,WV
33854,Lakeshore,FL
37846,Philadelphia,TN
17015,Carlisle,PA
64648,Jamesport,MO
61737,Ellsworth,IL
13118,Moravia,NY
76180,North Richland Hills,TX
34769,Saint Cloud,FL
56763,Warroad,MN
81630,De Beque,CO
60638,Chicago,IL
88347,Sacramento,NM
56651,Lengby,MN
62558,Pawnee,IL
16112,Bessemer,PA
42280,Sharon Grove,KY
68622,Bartlett,NE
42332,Cleaton,KY
75080,Richardson,TX
65322,Blackwater,MO
56684,Trail,MN
3273,South Sutton,NH
98433,Tacoma,WA
89301,Ely,NV
58460,Lehr,ND
94720,Berkeley,CA
3464,Stoddard,NH
8085,Swedesboro,NJ
79847,Salt Flat,TX
19154,Philadelphia,PA
52037,Delmar,IA
12457,Mount Tremper,NY
14549,Silver Lake,NY
12416,Chichester,NY
30274,Riverdale,GA
84741,Kanab,UT
24239,Davenport,VA
72536,Franklin,AR
68930,Blue Hill,NE
56688,Wirt,MN
37034,Chapel Hill,TN
57362,Miller,SD
91330,Northridge,CA
98544,Galvin,WA
84634,Gunnison,UT
80860,Victor,CO
19345,Immaculata,PA
66761,Piqua,KS
55702,Alborn,MN
44104,Cleveland,OH
24149,Riner,VA
55616,Two Harbors,MN
61459,Marietta,IL
99773,Shungnak,AK
6469,Moodus,CT
43430,Genoa,OH
21904,Port Deposit,MD
76626,Blooming Grove,TX
5444,Cambridge,VT
22736,Richardsville,VA
92867,Orange,CA
83810,Cataldo,ID
15724,Cherry Tree,PA
15650,Latrobe,PA
54610,Alma,WI
58426,Courtenay,ND
33848,Intercession City,FL
62379,Warsaw,IL
60426,Harvey,IL
74965,Westville,OK
5091,Woodstock,VT
33706,Saint Petersburg,FL
7069,Watchung,NJ
37772,Lenoir City,TN
19506,Bernville,PA
47140,Marengo,IN
4084,Standish,ME
41055,Mayslick,KY
64108,Kansas City,MO
68755,Naper,NE
2663,South Wellfleet,MA
50212,Ogden,IA
50523,Callender,IA
81656,Woody Creek,CO
99111,Colfax,WA
89413,Glenbrook,NV
65655,Gainesville,MO
88435,Santa Rosa,NM
62851,Keenes,IL
22203,Arlington,VA
57262,Sisseton,SD
14607,Rochester,NY
43128,Jeffersonville,OH
73944,Hardesty,OK
93666,Sultana,CA
92070,Santa Ysabel,CA
29461,Moncks Corner,SC
40913,Beverly,KY
16669,Petersburg,PA
60487,Tinley Park,IL
76370,Megargel,TX
27229,Candor,NC
83236,Firth,ID
60934,Emington,IL
59855,Pablo,MT
15234,Pittsburgh,PA
36051,Marbury,AL
11212,Brooklyn,NY
51250,Sioux Center,IA
63538,Elmer,MO
2482,Wellesley,MA
27527,Clayton,NC
42348,Hawesville,KY
81328,Mancos,CO
47469,West Baden Springs,IN
50472,Saint Ansgar,IA
23703,Portsmouth,VA
67480,Solomon,KS
75054,Grand Prairie,TX
74047,Mounds,OK
59934,Trego,MT
21204,Towson,MD
13143,Red Creek,NY
38476,Primm Springs,TN
17006,Blain,PA
1603,Worcester,MA
73098,Wynnewood,OK
86321,Bagdad,AZ
10993,West Haverstraw,NY
4739,Eagle Lake,ME
46039,Forest,IN
44611,Big Prairie,OH
49448,Nunica,MI
5476,Richford,VT
99360,Touchet,WA
61813,Bement,IL
73626,Canute,OK
44134,Cleveland,OH
66032,Garnett,KS
55782,Soudan,MN
59830,De Borgia,MT
17202,Chambersburg,PA
62205,East Saint Louis,IL
60490,Bolingbrook,IL
35986,Rainsville,AL
10532,Hawthorne,NY
22802,Harrisonburg,VA
56214,Belview,MN
46543,Millersburg,IN
61102,Rockford,IL
70582,Saint Martinville,LA
54545,Manitowish Waters,WI
93308,Bakersfield,CA
1039,Haydenville,MA
78002,Atascosa,TX
14753,Limestone,NY
51450,Lake View,IA
29665,Newry,SC
29724,Lando,SC
27242,Eagle Springs,NC
61428,Dahinda,IL
13847,Trout Creek,NY
19735,Winterthur,DE
78836,Catarina,TX
20646,La Plata,MD
99335,Kahlotus,WA
49088,Scotts,MI
17827,Freeburg,PA
1001,Agawam,MA
96086,Seiad Valley,CA
46799,Zanesville,IN
80914,Colorado Springs,CO
65275,Paris,MO
47356,Middletown,IN
11725,Commack,NY
40012,Chaplin,KY
6776,New Milford,CT
46996,Winamac,IN
61423,Cameron,IL
85206,Mesa,AZ
31707,Albany,GA
91722,Covina,CA
39841,Damascus,GA
62996,Villa Ridge,IL
69168,Venango,NE
49329,Howard City,MI
80215,Denver,CO
50858,Orient,IA
49283,Spring Arbor,MI
97331,Corvallis,OR
81125,Center,CO
73747,Isabella,OK
3785,Woodsville,NH
90020,Los Angeles,CA
64139,Kansas City,MO
38077,Wynnburg,TN
19426,Collegeville,PA
39755,Pheba,MS
24931,Crawley,WV
65010,Ashland,MO
29046,Elliott,SC
22627,Flint Hill,VA
77466,Pattison,TX
18015,Bethlehem,PA
95669,Plymouth,CA
35905,Gadsden,AL
4617,Brooksville,ME
33025,Hollywood,FL
69034,Indianola,NE
61720,Anchor,IL
50851,Lenox,IA
16511,Erie,PA
29572,Myrtle Beach,SC
72417,Brookland,AR
7648,Norwood,NJ
68307,Avoca,NE
5764,Poultney,VT
98557,Mccleary,WA
49094,Union City,MI
20111,Manassas,VA
63736,Benton,MO
48865,Orleans,MI
13606,Adams Center,NY
50518,Barnum,IA
1460,Littleton,MA
33013,Hialeah,FL
34471,Ocala,FL
32621,Bronson,FL
22448,Dahlgren,VA
37312,Cleveland,TN
40376,Slade,KY
28622,Elk Park,NC
77856,Franklin,TX
37640,Butler,TN
82083,Rock River,WY
38475,Olivehill,TN
6757,Kent,CT
74035,Hominy,OK
62975,Pomona,IL
44076,Orwell,OH
62351,Mendon,IL
25213,Winfield,WV
72587,Wiseman,AR
75114,Crandall,TX
15863,Stump Creek,PA
59640,Marysville,MT
824,Christiansted,VI
10998,Westtown,NY
68055,Rosalie,NE
64672,Powersville,MO
30039,Snellville,GA
32180,Pierson,FL
90220,Compton,CA
45152,Morrow,OH
48933,Lansing,MI
99764,Northway,AK
30529,Commerce,GA
35543,Bear Creek,AL
79541,Ovalo,TX
90211,Beverly Hills,CA
53563,Milton,WI
76073,Paradise,TX
35587,Townley,AL
16117,Ellwood City,PA
65259,Huntsville,MO
81522,Gateway,CO
33838,Dundee,FL
15217,Pittsburgh,PA
91910,Chula Vista,CA
71446,Leesville,LA
70116,New Orleans,LA
73521,Altus,OK
52160,New Albin,IA
33565,Plant City,FL
81007,Pueblo,CO
32218,Jacksonville,FL
32040,Glen Saint Mary,FL
8832,Keasbey,NJ
11963,Sag Harbor,NY
57722,Buffalo Gap,SD
93221,Exeter,CA
72751,Pea Ridge,AR
27959,Nags Head,NC
27892,Williamston,NC
46324,Hammond,IN
24361,Meadowview,VA
18701,Wilkes Barre,PA
54465,Pickerel,WI
20838,Barnesville,MD
58344,Lakota,ND
53083,Sheboygan,WI
28655,Morganton,NC
16438,Union City,PA
57346,Stephan,SD
81230,Gunnison,CO
38132,Memphis,TN
94542,Hayward,CA
12492,West Kill,NY
95564,Samoa,CA
22959,North Garden,VA
68958,Loomis,NE
11978,Westhampton Beach,NY
62070,Mozier,IL
28805,Asheville,NC
27880,Sims,NC
96781,Papaikou,HI
28574,Richlands,NC
38015,Burlison,TN
69356,Minatare,NE
48033,Southfield,MI
16341,Pleasantville,PA
55406,Minneapolis,MN
11949,Manorville,NY
28901,Andrews,NC
15632,Export,PA
84015,Clearfield,UT
6420,Salem,CT
3266,Rumney,NH
98373,Puyallup,WA
2169,Quincy,MA
66516,Netawaka,KS
93592,Trona,CA
94132,San Francisco,CA
73763,Okeene,OK
4002,Alfred,ME
98039,Medina,WA
16406,Conneautville,PA
1541,Princeton,MA
1826,Dracut,MA
27596,Youngsville,NC
36535,Foley,AL
33542,Zephyrhills,FL
98530,Bucoda,WA
61025,East Dubuque,IL
16634,Dudley,PA
25652,Whitman,WV
15024,Cheswick,PA
841,Frederiksted,VI
79257,Silverton,TX
25252,Le Roy,WV
62523,Decatur,IL
1337,Bernardston,MA
30752,Trenton,GA
35649,Mooresville,AL
35775,Valhermoso Springs,AL
17857,Northumberland,PA
75203,Dallas,TX
70451,Natalbany,LA
12069,Fort Hunter,NY
50060,Corydon,IA
57640,Lodgepole,SD
13691,Theresa,NY
92505,Riverside,CA
52231,Harper,IA
74944,Mccurtain,OK
16685,Todd,PA
45449,Dayton,OH
44438,Masury,OH
29464,Mount Pleasant,SC
26559,Barrackville,WV
64079,Platte City,MO
89310,Austin,NV
67738,Grinnell,KS
92345,Hesperia,CA
18472,Waymart,PA
72223,Little Rock,AR
29341,Gaffney,SC
70780,Sunshine,LA
39737,Bellefontaine,MS
26576,Idamay,WV
64644,Hamilton,MO
49733,Frederic,MI
78146,Pettus,TX
74855,Meeker,OK
62841,Freeman Spur,IL
7711,Allenhurst,NJ
72394,Widener,AR
32204,Jacksonville,FL
13163,Wampsville,NY
27831,Garysburg,NC
3079,Salem,NH
25107,Hernshaw,WV
31645,Ray City,GA
16319,Cranberry,PA
28698,Zionville,NC
65663,Half Way,MO
28339,Erwin,NC
4927,Clinton,ME
17267,Warfordsburg,PA
54139,Lena,WI
43531,Kunkle,OH
29117,Orangeburg,SC
64874,Wheaton,MO
45160,Owensville,OH
5156,Springfield,VT
95202,Stockton,CA
46929,Flora,IN
33172,Miami,FL
28098,Lowell,NC
26519,Albright,WV
49706,Alanson,MI
17963,Pine Grove,PA
64681,Sumner,MO
48653,Roscommon,MI
1349,Millers Falls,MA
11530,Garden City,NY
67301,Independence,KS
56251,Kandiyohi,MN
68835,Elba,NE
38621,Crenshaw,MS
12504,Annandale On Hudson,NY
16346,Seneca,PA
62825,Coello,IL
27555,Micro,NC
19533,Leesport,PA
31543,Hortense,GA
37770,Lancing,TN
50028,Baxter,IA
97206,Portland,OR
8086,Thorofare,NJ
8884,Spotswood,NJ
55115,Saint Paul,MN
54002,Baldwin,WI
42406,Corydon,KY
59935,Troy,MT
62231,Carlyle,IL
50119,Harvey,IA
95446,Guerneville,CA
48746,Millington,MI
19702,Newark,DE
98811,Ardenvoir,WA
42347,Hartford,KY
6615,Stratford,CT
25235,Chloe,WV
83452,Tetonia,ID
62445,Montrose,IL
50582,Rutland,IA
30354,Atlanta,GA
79548,Rule,TX
73735,Drummond,OK
12160,Sloansville,NY
34137,Copeland,FL
21226,Curtis Bay,MD
39571,Pass Christian,MS
71852,Nashville,AR
76366,Holliday,TX
93657,Sanger,CA
73647,Foss,OK
98612,Cathlamet,WA
13830,Oxford,NY
68105,Omaha,NE
19094,Woodlyn,PA
48137,Gregory,MI
7420,Haskell,NJ
29944,Varnville,SC
31309,Fleming,GA
17061,Millersburg,PA
44669,Paris,OH
31054,McIntyre,GA
13494,Woodgate,NY
92411,San Bernardino,CA
56550,Hendrum,MN
69157,Purdum,NE
60064,North Chicago,IL
76460,Loving,TX
65301,Sedalia,MO
68601,Columbus,NE
43332,La Rue,OH
87046,Regina,NM
93210,Coalinga,CA
78056,Mico,TX
44116,Rocky River,OH
2199,Boston,MA
56551,Henning,MN
29620,Abbeville,SC
3281,Weare,NH
47147,Nabb,IN
26236,Selbyville,WV
96773,Ninole,HI
6417,Deep River,CT
46781,Poneto,IN
64673,Princeton,MO
33034,Homestead,FL
30070,Porterdale,GA
73028,Crescent,OK
90059,Los Angeles,CA
51063,Whiting,IA
23866,Ivor,VA
7452,Glen Rock,NJ
47619,Lynnville,IN
93906,Salinas,CA
54112,Coleman,WI
28466,Wallace,NC
30464,Stillmore,GA
38685,Waterford,MS
62434,Ingraham,IL
24595,Sweet Briar,VA
37205,Nashville,TN
19095,Wyncote,PA
51018,Cushing,IA
21224,Baltimore,MD
75701,Tyler,TX
24588,Rustburg,VA
28775,Scaly Mountain,NC
89135,Las Vegas,NV
67114,Newton,KS
55388,Watertown,MN
53555,Lodi,WI
95012,Castroville,CA
10543,Mamaroneck,NY
89141,Las Vegas,NV
39066,Edwards,MS
29518,Cades,SC
73842,Freedom,OK
76457,Hico,TX
84622,Centerfield,UT
32225,Jacksonville,FL
76380,Seymour,TX
74146,Tulsa,OK
49736,Goetzville,MI
87317,Gamerco,NM
27028,Mocksville,NC
27051,Walkertown,NC
65270,Moberly,MO
59230,Glasgow,MT
28438,Evergreen,NC
39771,Walthall,MS
53557,Lowell,WI
25204,Twilight,WV
12930,Dickinson Center,NY
31635,Lakeland,GA
14411,Albion,NY
41745,Gays Creek,KY
94602,Oakland,CA
24484,Warm Springs,VA
70420,Abita Springs,LA
50566,Moorland,IA
98685,Vancouver,WA
99027,Otis Orchards,WA
25132,Mammoth,WV
32533,Cantonment,FL
16417,Girard,PA
87524,Costilla,NM
49271,Pittsford,MI
4854,Owls Head,ME
68318,Blue Springs,NE
79730,Coyanosa,TX
33430,Belle Glade,FL
27410,Greensboro,NC
58646,Mott,ND
75253,Dallas,TX
77037,Houston,TX
45771,Racine,OH
38473,Minor Hill,TN
91008,Duarte,CA
12531,Holmes,NY
81049,Kim,CO
93304,Bakersfield,CA
42458,Spottsville,KY
14054,East Bethany,NY
36053,Midway,AL
35243,Birmingham,AL
29566,Little River,SC
96817,Honolulu,HI
95454,Laytonville,CA
11206,Brooklyn,NY
90019,Los Angeles,CA
18460,South Sterling,PA
68351,Exeter,NE
94587,Union City,CA
88002,White Sands Missile Range,NM
28102,McFarlan,NC
28115,Mooresville,NC
68467,York,NE
95041,Mount Hermon,CA
24477,Stuarts Draft,VA
20905,Silver Spring,MD
2826,Glendale,RI
99763,Noorvik,AK
20817,Bethesda,MD
29365,Lyman,SC
36020,Coosada,AL
62974,Pittsburg,IL
17562,Paradise,PA
36582,Theodore,AL
24318,Ceres,VA
29666,Ninety Six,SC
98368,Port Townsend,WA
93610,Chowchilla,CA
12158,Selkirk,NY
46922,Delong,IN
99324,College Place,WA
46268,Indianapolis,IN
40353,Mount Sterling,KY
41071,Newport,KY
95621,Citrus Heights,CA
35176,Vandiver,AL
27805,Aulander,NC
99301,Pasco,WA
37090,Lebanon,TN
735,Ceiba,PR
56025,Easton,MN
67063,Hillsboro,KS
39166,Silver City,MS
7401,Allendale,NJ
17064,Mount Gretna,PA
72366,Marvell,AR
61331,Lee Center,IL
13786,Harpersfield,NY
64643,Hale,MO
38118,Memphis,TN
58367,Rolla,ND
99352,Richland,WA
53046,Lannon,WI
83211,American Falls,ID
39061,Delta City,MS
2657,Provincetown,MA
40914,Big Creek,KY
29680,Simpsonville,SC
87105,Albuquerque,NM
19807,Wilmington,DE
96710,Hakalau,HI
85923,Clay Springs,AZ
43152,South Bloomingville,OH
23438,Suffolk,VA
12138,Petersburg,NY
38391,Denmark,TN
29016,Blythewood,SC
4354,Palermo,ME
33446,Delray Beach,FL
26711,Capon Bridge,WV
36792,Randolph,AL
54742,Fall Creek,WI
63868,Morehouse,MO
29810,Allendale,SC
85361,Wittmann,AZ
76225,Alvord,TX
38225,Dresden,TN
43516,Deshler,OH
18974,Warminster,PA
32536,Crestview,FL
5661,Morrisville,VT
8065,Palmyra,NJ
78218,San Antonio,TX
29482,Sullivans Island,SC
16505,Erie,PA
13436,Raquette Lake,NY
1550,Southbridge,MA
17260,Shirleysburg,PA
88419,Folsom,NM
98252,Granite Falls,WA
71241,Farmerville,LA
35057,Cullman,AL
98925,Easton,WA
91331,Pacoima,CA
63654,Lesterville,MO
77803,Bryan,TX
86432,Littlefield,AZ
2538,East Wareham,MA
68319,Bradshaw,NE
29063,Irmo,SC
77002,Houston,TX
71061,Oil City,LA
48662,Wheeler,MI
37167,Smyrna,TN
25646,Stollings,WV
44666,North Lawrence,OH
49203,Jackson,MI
97455,Pleasant Hill,OR
37302,Apison,TN
36859,Holy Trinity,AL
64499,Worth,MO
25049,Comfort,WV
2919,Johnston,RI
71972,Vandervoort,AR
95450,Jenner,CA
68778,Springview,NE
54627,Ettrick,WI
79358,Ropesville,TX
86323,Chino Valley,AZ
62288,Steeleville,IL
24946,Hillsboro,WV
44262,Munroe Falls,OH
16228,Ford Cliff,PA
16137,Mercer,PA
72425,Delaplaine,AR
55744,Grand Rapids,MN
4472,Orland,ME
62294,Troy,IL
42413,Hanson,KY
77616,Fred,TX
48432,Filion,MI
18360,Stroudsburg,PA
97064,Vernonia,OR
17518,Drumore,PA
97231,Portland,OR
19457,Parker Ford,PA
63141,Saint Louis,MO
82635,Edgerton,WY
55606,Hovland,MN
35096,Lincoln,AL
57523,Burke,SD
33705,Saint Petersburg,FL
33967,Fort Myers,FL
73033,Eakly,OK
56312,Belgrade,MN
50258,Union,IA
92234,Cathedral City,CA
93622,Firebaugh,CA
88323,Fort Stanton,NM
6160,Hartford,CT
76834,Coleman,TX
90712,Lakewood,CA
78584,Roma,TX
67110,Mulvane,KS
50433,Dougherty,IA
45227,Cincinnati,OH
28570,Newport,NC
22579,Wicomico Church,VA
63122,Saint Louis,MO
94946,Nicasio,CA
44614,Canal Fulton,OH
20895,Kensington,MD
62917,Carrier Mills,IL
22835,Luray,VA
18058,Kunkletown,PA
40744,London,KY
83250,Mccammon,ID
2035,Foxboro,MA
52215,Chelsea,IA
30035,Decatur,GA
34688,Tarpon Springs,FL
49449,Pentwater,MI
60097,Wonder Lake,IL
74936,Gans,OK
66849,Dwight,KS
19365,Parkesburg,PA
53705,Madison,WI
60029,Golf,IL
67625,Bogue,KS
27551,Macon,NC
15455,Leisenring,PA
29645,Gray Court,SC
76837,Eden,TX
70391,Paincourtville,LA
33946,Placida,FL
74941,Keota,OK
18517,Taylor,PA
42753,Knifley,KY
12164,Speculator,NY
36374,Skipperville,AL
48622,Farwell,MI
14222,Buffalo,NY
87732,Mora,NM
14901,Elmira,NY
49866,Negaunee,MI
80015,Aurora,CO
89423,Minden,NV
77038,Houston,TX
62473,Watson,IL
19367,Pomeroy,PA
8550,Princeton Junction,NJ
95736,Weimar,CA
91352,Sun Valley,CA
65047,Kaiser,MO
8889,Whitehouse Station,NJ
51039,Moville,IA
18417,Equinunk,PA
29742,Sharon,SC
45652,McDermott,OH
95035,Milpitas,CA
68421,Peru,NE
50122,Hubbard,IA
8542,Princeton,NJ
49050,Dowling,MI
57054,Ramona,SD
66226,Shawnee,KS
73720,Bison,OK
72749,Morrow,AR
97461,Noti,OR
15324,Cokeburg,PA
18438,Lakeville,PA
72566,Pineville,AR
48851,Lyons,MI
17345,Manchester,PA
46795,Wolcottville,IN
75931,Brookeland,TX
19079,Sharon Hill,PA
30291,Union City,GA
49690,Williamsburg,MI
24122,Montvale,VA
12304,Schenectady,NY
87823,Lemitar,NM
15313,Beallsville,PA
15467,New Geneva,PA
15929,Dilltown,PA
78653,Manor,TX
21639,Greensboro,MD
72946,Mountainburg,AR
77039,Houston,TX
84308,Cornish,UT
68108,Omaha,NE
36319,Columbia,AL
13678,Raymondville,NY
51444,Halbur,IA
21540,Luke,MD
20868,Spencerville,MD
21215,Baltimore,MD
55783,Sturgeon Lake,MN
40445,Livingston,KY
33435,Boynton Beach,FL
84735,Hatch,UT
95692,Wheatland,CA
36602,Mobile,AL
23322,Chesapeake,VA
71845,Lewisville,AR
65564,Solo,MO
52047,Farmersburg,IA
45884,Saint Johns,OH
74561,Quinton,OK
31406,Savannah,GA
50588,Storm Lake,IA
66538,Seneca,KS
30726,Graysville,GA
95816,Sacramento,CA
95333,Le Grand,CA
44423,Hanoverton,OH
55049,Medford,MN
61030,Forreston,IL
48139,Hamburg,MI
93287,Woody,CA
29902,Beaufort,SC
24945,Greenville,WV
51458,Odebolt,IA
28701,Alexander,NC
15417,Brownsville,PA
1922,Byfield,MA
58718,Berthold,ND
65305,Whiteman Air Force Base,MO
35610,Anderson,AL
78232,San Antonio,TX
62821,Carmi,IL
30903,Augusta,GA
12851,Minerva,NY
12428,Ellenville,NY
57033,Hartford,SD
46957,Matthews,IN
12010,Amsterdam,NY
77303,Conroe,TX
45861,Melrose,OH
58769,Palermo,ND
44044,Grafton,OH
57278,Willow Lake,SD
15546,Jenners,PA
40827,Essie,KY
93635,Los Banos,CA
28112,Monroe,NC
59825,Clinton,MT
61537,Henry,IL
612,Arecibo,PR
1013,Chicopee,MA
18822,Hallstead,PA
27615,Raleigh,NC
12574,Rhinecliff,NY
20783,Hyattsville,MD
67345,Elk Falls,KS
37403,Chattanooga,TN
72076,Jacksonville,AR
49319,Cedar Springs,MI
76641,Frost,TX
61344,Mineral,IL
58436,Ellendale,ND
68732,Dixon,NE
52052,Guttenberg,IA
26137,Big Springs,WV
61545,Lowpoint,IL
33603,Tampa,FL
85356,Wellton,AZ
72112,Newport,AR
24077,Cloverdale,VA
34453,Inverness,FL
29924,Hampton,SC
21626,Crapo,MD
77093,Houston,TX
30741,Rossville,GA
88032,Dona Ana,NM
62823,Cisne,IL
25524,Harts,WV
62436,Jewett,IL
25555,Prichard,WV
13842,South Kortright,NY
61850,Indianola,IL
13337,Fly Creek,NY
35648,Lexington,AL
52593,Udell,IA
83251,Mackay,ID
39669,Woodville,MS
58230,Finley,ND
46747,Hudson,IN
70047,Destrehan,LA
36750,Maplesville,AL
72663,Onia,AR
79744,Iraan,TX
77415,Cedar Lane,TX
73026,Norman,OK
99326,Connell,WA
44305,Akron,OH
43842,Trinway,OH
45740,Jacksonville,OH
31085,Shady Dale,GA
68663,Silver Creek,NE
43055,Newark,OH
97814,Baker City,OR
22610,Bentonville,VA
59062,Otter,MT
40175,Vine Grove,KY
35980,Horton,AL
28375,Proctorville,NC
7508,Haledon,NJ
89005,Boulder City,NV
62030,Fidelity,IL
5363,Wilmington,VT
48094,Washington,MI
99016,Greenacres,WA
61912,Ashmore,IL
17867,Rebuck,PA
59339,Lindsay,MT
64137,Kansas City,MO
99564,Chignik,AK
62015,Butler,IL
85019,Phoenix,AZ
23389,Harborton,VA
97112,Cloverdale,OR
36863,Lanett,AL
58794,White Earth,ND
56231,Danvers,MN
92256,Morongo Valley,CA
13605,Adams,NY
99156,Newport,WA
37683,Mountain City,TN
55345,Minnetonka,MN
78843,Laughlin Afb,TX
35089,Kellyton,AL
78833,Camp Wood,TX
5675,Washington,VT
78539,Edinburg,TX
42104,Bowling Green,KY
55765,Meadowlands,MN
26563,Carolina,WV
55369,Osseo,MN
44145,Westlake,OH
54412,Auburndale,WI
56121,Ceylon,MN
59058,Mosby,MT
36311,Ariton,AL
32564,Holt,FL
92509,Jurupa Valley,CA
62711,Springfield,IL
27107,Winston Salem,NC
45334,Jackson Center,OH
28040,Ellenboro,NC
68329,Cook,NE
10307,Staten Island,NY
97135,Pacific City,OR
50483,Wesley,IA
42061,Lowes,KY
68821,Brewster,NE
48235,Detroit,MI
47882,Sullivan,IN
95559,Phillipsville,CA
67637,Ellis,KS
66025,Eudora,KS
60534,Lyons,IL
20833,Brookeville,MD
78737,Austin,TX
90026,Los Angeles,CA
77632,Orange,TX
64019,Centerview,MO
86004,Flagstaff,AZ
78040,Laredo,TX
56334,Glenwood,MN
98587,Taholah,WA
83114,Cokeville,WY
2863,Central Falls,RI
29943,Tillman,SC
4627,Deer Isle,ME
21234,Parkville,MD
46936,Greentown,IN
97620,Adel,OR
8559,Stockton,NJ
19125,Philadelphia,PA
93401,San Luis Obispo,CA
16404,Centerville,PA
17010,Campbelltown,PA
86314,Prescott Valley,AZ
56027,Elmore,MN
80816,Florissant,CO
20245,Washington,DC
62343,Hull,IL
46290,Indianapolis,IN
58418,Bowdon,ND
72167,Traskwood,AR
29349,Inman,SC
95032,Los Gatos,CA
14609,Rochester,NY
49263,Norvell,MI
10958,New Hampton,NY
26705,Aurora,WV
21624,Claiborne,MD
54763,Ridgeland,WI
30079,Scottdale,GA
45238,Cincinnati,OH
53931,Fairwater,WI
72031,Clinton,AR
14480,Lakeville,NY
30436,Lyons,GA
52542,Cantril,IA
12020,Ballston Spa,NY
55768,Mountain Iron,MN
98550,Hoquiam,WA
73938,Forgan,OK
31542,Hoboken,GA
34787,Winter Garden,FL
82229,Shawnee,WY
74068,Shamrock,OK
43345,Ridgeway,OH
10589,Somers,NY
62281,Saint Jacob,IL
7950,Morris Plains,NJ
74867,Sasakwa,OK
18473,White Mills,PA
13612,Black River,NY
82643,Midwest,WY
96749,Keaau,HI
47220,Brownstown,IN
98817,Chelan Falls,WA
42420,Henderson,KY
5065,Sharon,VT
8402,Margate City,NJ
7444,Pompton Plains,NJ
68044,Nickerson,NE
94609,Oakland,CA
78411,Corpus Christi,TX
87301,Gallup,NM
64761,Leeton,MO
27330,Sanford,NC
37212,Nashville,TN
50671,Stanley,IA
12137,Pattersonville,NY
15147,Verona,PA
51454,Manilla,IA
3768,Lyme,NH
76251,Montague,TX
25186,Smithers,WV
20645,Issue,MD
93429,Casmalia,CA
6248,Hebron,CT
61368,Tiskilwa,IL
25047,Clothier,WV
90008,Los Angeles,CA
61064,Polo,IL
21829,Girdletree,MD
57045,Menno,SD
2467,Chestnut Hill,MA
19946,Frederica,DE
12414,Catskill,NY
58216,Bathgate,ND
45352,Palestine,OH
2188,Weymouth,MA
50439,Goodell,IA
10467,Bronx,NY
11216,Brooklyn,NY
26269,Hambleton,WV
26298,Bergoo,WV
38342,Hollow Rock,TN
66604,Topeka,KS
80122,Littleton,CO
72042,De Witt,AR
8061,Mount Royal,NJ
62272,Percy,IL
28552,Lowland,NC
38452,Cypress Inn,TN
45805,Lima,OH
48236,Grosse Pointe,MI
7074,Moonachie,NJ
98922,Cle Elum,WA
54016,Hudson,WI
48183,Trenton,MI
23314,Carrollton,VA
49336,Morley,MI
17851,Mount Carmel,PA
49544,Grand Rapids,MI
65559,Saint James,MO
62850,Johnsonville,IL
49793,Trout Lake,MI
65456,Davisville,MO
94102,San Francisco,CA
4461,Milford,ME
69167,Tryon,NE
33139,Miami Beach,FL
54180,Wrightstown,WI
31764,Leslie,GA
4285,Weld,ME
44857,Norwalk,OH
99688,Willow,AK
42123,Austin,KY
85296,Gilbert,AZ
71973,Wickes,AR
32205,Jacksonville,FL
74902,Pocola,OK
26294,Valley Head,WV
62016,Carrollton,IL
78728,Austin,TX
1923,Danvers,MA
24142,Radford,VA
2875,Shannock,RI
67764,Winona,KS
44718,Canton,OH
44129,Cleveland,OH
58346,Leeds,ND
61941,Murdock,IL
74948,Muldrow,OK
94705,Berkeley,CA
68008,Blair,NE
24185,Woolwine,VA
25857,Josephine,WV
62835,Enfield,IL
96701,Aiea,HI
27616,Raleigh,NC
72046,England,AR
97373,Saint Benedict,OR
54111,Cecil,WI
75472,Point,TX
95328,Keyes,CA
57585,Wood,SD
31312,Guyton,GA
3561,Littleton,NH
5150,North Springfield,VT
27944,Hertford,NC
15955,Sidman,PA
62963,Mound City,IL
8518,Florence,NJ
90048,Los Angeles,CA
4936,Eustis,ME
49770,Petoskey,MI
31322,Pooler,GA
51436,Breda,IA
30344,Atlanta,GA
62927,Dowell,IL
63144,Saint Louis,MO
53147,Lake Geneva,WI
40337,Jeffersonville,KY
76652,Kopperl,TX
39209,Jackson,MS
30655,Monroe,GA
11951,Mastic Beach,NY
93921,Carmel By The Sea,CA
92233,Calipatria,CA
66118,Kansas City,KS
62549,Mt Zion,IL
12747,Hurleyville,NY
2760,North Attleboro,MA
76402,Stephenville,TX
71251,Jonesboro,LA
50310,Des Moines,IA
47458,Smithville,IN
93030,Oxnard,CA
44861,Old Fort,OH
80516,Erie,CO
22602,Winchester,VA
92518,March Air Reserve Base,CA
98686,Vancouver,WA
83209,Pocatello,ID
86043,Second Mesa,AZ
55923,Chatfield,MN
92868,Orange,CA
43412,Curtice,OH
17507,Bowmansville,PA
61327,Hennepin,IL
48848,Laingsburg,MI
64052,Independence,MO
64105,Kansas City,MO
76849,Junction,TX
36451,Grove Hill,AL
42256,Lewisburg,KY
63934,Clubb,MO
78931,Bleiblerville,TX
4962,North Vassalboro,ME
53943,Loganville,WI
80701,Fort Morgan,CO
55753,Keewatin,MN
28756,Mill Spring,NC
46151,Martinsville,IN
60461,Olympia Fields,IL
78417,Corpus Christi,TX
46126,Fairland,IN
39323,Chunky,MS
70403,Hammond,LA
72719,Centerton,AR
31637,Lenox,GA
71108,Shreveport,LA
79064,Olton,TX
69131,Dalton,NE
16664,New Enterprise,PA
61260,Joy,IL
63435,Canton,MO
38057,Moscow,TN
85706,Tucson,AZ
45681,South Salem,OH
36925,York,AL
22031,Fairfax,VA
2339,Hanover,MA
81647,New Castle,CO
44436,Lowellville,OH
68102,Omaha,NE
60450,Morris,IL
90255,Huntington Park,CA
80473,Rand,CO
76802,Early,TX
71253,Kilbourne,LA
16342,Polk,PA
69028,Eustis,NE
52041,Earlville,IA
27282,Jamestown,NC
54481,Stevens Point,WI
16321,East Hickory,PA
65026,Eldon,MO
95351,Modesto,CA
49053,Galesburg,MI
50003,Adel,IA
54027,Wilson,WI
35139,Sayre,AL
86436,Topock,AZ
15410,Adah,PA
55047,Marine On Saint Croix,MN
18356,Shawnee On Delaware,PA
25303,South Charleston,WV
38917,Carrollton,MS
77612,Buna,TX
35007,Alabaster,AL
8103,Camden,NJ
49901,Ahmeek,MI
29207,Columbia,SC
11692,Arverne,NY
47274,Seymour,IN
72630,Diamond City,AR
15423,Coal Center,PA
73120,Oklahoma City,OK
73064,Mustang,OK
33444,Delray Beach,FL
58241,Hensel,ND
81243,Powderhorn,CO
27408,Greensboro,NC
50111,Grimes,IA
37821,Newport,TN
53926,Dalton,WI
16732,Gifford,PA
63128,Saint Louis,MO
95765,Rocklin,CA
18470,Union Dale,PA
14772,Randolph,NY
45378,Verona,OH
10119,New York,NY
57039,Lennox,SD
68739,Hartington,NE
2138,Cambridge,MA
81052,Lamar,CO
62268,Oakdale,IL
65754,Spokane,MO
50524,Clare,IA
37748,Harriman,TN
39664,Smithdale,MS
71854,Texarkana,AR
34638,Land O'Lakes,FL
95412,Annapolis,CA
3598,Whitefield,NH
99320,Benton City,WA
16502,Erie,PA
68949,Holdrege,NE
77857,Gause,TX
12444,Jewett,NY
64671,Polo,MO
4015,Casco,ME
97473,Scottsburg,OR
53125,Fontana,WI
62801,Centralia,IL
15620,Bradenville,PA
82727,Rozet,WY
10921,Florida,NY
78240,San Antonio,TX
48152,Livonia,MI
15083,Sutersville,PA
52777,Wheatland,IA
78109,Converse,TX
34446,Homosassa,FL
97131,Nehalem,OR
72734,Gentry,AR
40737,Keavy,KY
74756,Sawyer,OK
46055,Mccordsville,IN
66048,Leavenworth,KS
2535,Chilmark,MA
74901,Arkoma,OK
27325,Robbins,NC
78130,New Braunfels,TX
86322,Camp Verde,AZ
62530,Divernon,IL
10301,Staten Island,NY
23834,Colonial Heights,VA
60157,Medinah,IL
10280,New York,NY
55925,Dakota,MN
66776,Thayer,KS
23958,Pamplin,VA
43535,Malinta,OH
98251,Gold Bar,WA
80005,Arvada,CO
39456,McLain,MS
44651,Mechanicstown,OH
21401,Annapolis,MD
78550,Harlingen,TX
23023,Bruington,VA
18201,Hazleton,PA
73654,Leedey,OK
21530,Flintstone,MD
95376,Tracy,CA
97603,Klamath Falls,OR
38744,Glen Allan,MS
1235,Hinsdale,MA
23603,Newport News,VA
98108,Seattle,WA
84779,Virgin,UT
85119,Apache Junction,AZ
24224,Castlewood,VA
56646,Gully,MN
27865,Pinetown,NC
56547,Glyndon,MN
80822,Joes,CO
11751,Islip,NY
1092,West Warren,MA
73442,Loco,OK
48230,Grosse Pointe,MI
35215,Birmingham,AL
16655,Imler,PA
95691,West Sacramento,CA
75565,McLeod,TX
83322,Corral,ID
62905,Alto Pass,IL
53511,Beloit,WI
56594,Wolverton,MN
47954,Ladoga,IN
78641,Leander,TX
60133,Hanover Park,IL
16157,Wampum,PA
38061,Pocahontas,TN
4056,Newfield,ME
62277,Prairie Du Rocher,IL
36736,Dixons Mills,AL
94922,Bodega,CA
18469,Tyler Hill,PA
56240,Graceville,MN
85120,Apache Junction,AZ
52577,Oskaloosa,IA
14904,Elmira,NY
58454,Jud,ND
24701,Bluefield,WV
83283,Thatcher,ID
36852,Cusseta,AL
62258,Mascoutah,IL
29470,Ravenel,SC
1066,North Hatfield,MA
12823,Cossayuna,NY
88135,Texico,NM
16728,De Young,PA
93653,Raymond,CA
45862,Mendon,OH
70769,Prairieville,LA
99403,Clarkston,WA
17238,Needmore,PA
68338,Daykin,NE
41052,Jonesville,KY
34760,Oakland,FL
1257,Sheffield,MA
8741,Pine Beach,NJ
53224,Milwaukee,WI
76654,Leroy,TX
19605,Reading,PA
75109,Corsicana,TX
51058,Sutherland,IA
19383,West Chester,PA
46915,Burlington,IN
22946,Keene,VA
40220,Louisville,KY
60119,Elburn,IL
35774,Trenton,AL
75211,Dallas,TX
64455,Graham,MO
79911,El Paso,TX
29073,Lexington,SC
68020,Decatur,NE
1890,Winchester,MA
40361,Paris,KY
77560,Hankamer,TX
62701,Springfield,IL
62240,East Carondelet,IL
14880,Scio,NY
39422,Bay Springs,MS
21036,Dayton,MD
74130,Tulsa,OK
5062,Reading,VT
61319,Cornell,IL
15321,Cecil,PA
24441,Grottoes,VA
69166,Thedford,NE
3597,West Stewartstown,NH
67003,Anthony,KS
12502,Ancram,NY
38255,Sharon,TN
30125,Cedartown,GA
44264,Peninsula,OH
47405,Bloomington,IN
74066,Sapulpa,OK
20774,Upper Marlboro,MD
49668,Mesick,MI
46818,Fort Wayne,IN
54843,Hayward,WI
38229,Gleason,TN
36542,Gulf Shores,AL
59311,Alzada,MT
51443,Glidden,IA
68929,Bloomington,NE
48708,Bay City,MI
84639,Levan,UT
59225,Frazer,MT
97362,Mount Angel,OR
49877,Ralph,MI
33541,Zephyrhills,FL
46911,Amboy,IN
94579,San Leandro,CA
35031,Blountsville,AL
48185,Westland,MI
72080,Jerusalem,AR
47338,Eaton,IN
67209,Wichita,KS
6403,Beacon Falls,CT
44685,Uniontown,OH
10044,New York,NY
72320,Brickeys,AR
42164,Scottsville,KY
50668,Readlyn,IA
32428,Chipley,FL
94111,San Francisco,CA
51029,Larrabee,IA
74128,Tulsa,OK
3814,Center Ossipee,NH
61334,Lostant,IL
89020,Amargosa Valley,NV
2645,Harwich,MA
29369,Moore,SC
95135,San Jose,CA
14733,Falconer,NY
16881,Woodland,PA
31719,Americus,GA
39452,Lucedale,MS
60946,Kempton,IL
59823,Bonner,MT
54020,Osceola,WI
48418,Byron,MI
8042,Juliustown,NJ
49444,Muskegon,MI
65806,Springfield,MO
72025,Casa,AR
80743,Otis,CO
1950,Newburyport,MA
74722,Battiest,OK
67062,Hesston,KS
15949,Robinson,PA
68348,Elk Creek,NE
22202,Arlington,VA
63450,Lentner,MO
37753,Hartford,TN
33043,Big Pine Key,FL
28097,Locust,NC
85726,Tucson,AZ
25672,Edgarton,WV
67467,Minneapolis,KS
41265,Van Lear,KY
35671,Tanner,AL
56580,Sabin,MN
65766,Udall,MO
901,San Juan,PR
4975,Shawmut,ME
30177,Tate,GA
37303,Athens,TN
10308,Staten Island,NY
94804,Richmond,CA
92025,Escondido,CA
79412,Lubbock,TX
95935,Dobbins,CA
44654,Millersburg,OH
76848,Hext,TX
48224,Detroit,MI
48473,Swartz Creek,MI
24370,Saltville,VA
29709,Chesterfield,SC
13160,Union Springs,NY
50431,Coulter,IA
21652,Neavitt,MD
32058,Lawtey,FL
99753,Koyuk,AK
20137,Broad Run,VA
60558,Western Springs,IL
57263,South Shore,SD
18031,Breinigsville,PA
30025,Social Circle,GA
44333,Akron,OH
89049,Tonopah,NV
65444,Bucyrus,MO
40208,Louisville,KY
41622,Eastern,KY
7866,Rockaway,NJ
32765,Oviedo,FL
16211,Beyer,PA
1074,South Barre,MA
13849,Unadilla,NY
54157,Peshtigo,WI
80238,Denver,CO
68864,Palmer,NE
8804,Bloomsbury,NJ
73040,Geary,OK
78746,Austin,TX
44425,Hubbard,OH
29039,Cordova,SC
81639,Hayden,CO
11436,Jamaica,NY
10594,Thornwood,NY
37080,Joelton,TN
60803,Alsip,IL
72015,Benton,AR
46202,Indianapolis,IN
97621,Beatty,OR
8809,Clinton,NJ
56325,Elrosa,MN
18430,Herrick Center,PA
97230,Portland,OR
95348,Merced,CA
61422,Bushnell,IL
51062,Westfield,IA
37149,Readyville,TN
13672,Parishville,NY
79314,Bledsoe,TX
95832,Sacramento,CA
54741,Fairchild,WI
37841,Oneida,TN
50277,Yale,IA
72959,Winslow,AR
6708,Waterbury,CT
56308,Alexandria,MN
14145,Strykersville,NY
14001,Akron,NY
66614,Topeka,KS
46012,Anderson,IN
4932,Dixmont,ME
70373,Larose,LA
84662,Spring City,UT
11710,Bellmore,NY
37645,Mount Carmel,TN
65680,Kissee Mills,MO
3576,Colebrook,NH
61231,Aledo,IL
50243,Sheldahl,IA
38943,McCarley,MS
17727,Cedar Run,PA
68528,Lincoln,NE
57764,Oglala,SD
61475,Sciota,IL
4756,Madawaska,ME
66550,Wetmore,KS
68710,Allen,NE
24485,West Augusta,VA
6268,Storrs Mansfield,CT
8234,Egg Harbor Township,NJ
16508,Erie,PA
74117,Tulsa,OK
38328,Darden,TN
91980,Tecate,CA
27840,Hamilton,NC
19474,Skippack,PA
5250,Arlington,VT
65769,Verona,MO
58643,Marmarth,ND
75949,Huntington,TX
15086,Warrendale,PA
63460,Novelty,MO
38108,Memphis,TN
37886,Walland,TN
32725,Deltona,FL
11367,Flushing,NY
60180,Union,IL
38551,Celina,TN
30189,Woodstock,GA
20712,Mount Rainier,MD
60647,Chicago,IL
30014,Covington,GA
14815,Bradford,NY
29331,Cross Anchor,SC
45353,Pemberton,OH
37871,Strawberry Plains,TN
33511,Brandon,FL
46939,Kewanna,IN
52066,North Buena Vista,IA
44240,Kent,OH
57311,Alexandria,SD
707,Maunabo,PR
43542,Monclova,OH
75070,Mckinney,TX
21795,Williamsport,MD
48021,Eastpointe,MI
85743,Tucson,AZ
38059,Newbern,TN
53543,Highland,WI
11373,Elmhurst,NY
43537,Maumee,OH
15004,Atlasburg,PA
24413,Blue Grass,VA
65048,Koeltztown,MO
44408,Columbiana,OH
12094,Johnsonville,NY
44113,Cleveland,OH
55953,Lyle,MN
43822,Frazeysburg,OH
79350,New Deal,TX
24283,Saint Paul,VA
36267,Millerville,AL
37183,Wartrace,TN
74836,Connerville,OK
79351,Odonnell,TX
75163,Trinidad,TX
58275,Reynolds,ND
67344,Elk City,KS
75421,Brookston,TX
51449,Lake City,IA
40311,Carlisle,KY
43029,Irwin,OH
31065,Montrose,GA
23103,Manakin Sabot,VA
38858,Nettleton,MS
58482,Steele,ND
49938,Ironwood,MI
49015,Battle Creek,MI
82834,Buffalo,WY
31206,Macon,GA
50325,Clive,IA
60137,Glen Ellyn,IL
50836,Blockton,IA
85637,Sonoita,AZ
90015,Los Angeles,CA
62093,Wilsonville,IL
83436,Newdale,ID
11369,East Elmhurst,NY
10171,New York,NY
38316,Bradford,TN
59047,Livingston,MT
60178,Sycamore,IL
56244,Hancock,MN
49519,Wyoming,MI
3215,Waterville Valley,NH
19401,Norristown,PA
44443,New Springfield,OH
72532,Evening Shade,AR
7726,Englishtown,NJ
20762,Andrews Air Force Base,MD
24184,Wirtz,VA
54484,Stratford,WI
17086,Richfield,PA
62443,Mason,IL
29370,Mountville,SC
25920,Slab Fork,WV
20622,Charlotte Hall,MD
62712,Springfield,IL
7677,Woodcliff Lake,NJ
5674,Warren,VT
72442,Manila,AR
28209,Charlotte,NC
63559,Novinger,MO
68979,Sutton,NE
24881,Roderfield,WV
47111,Charlestown,IN
49322,Coral,MI
63957,Piedmont,MO
57646,Mound City,SD
96103,Blairsden Graeagle,CA
84790,Saint George,UT
27884,Stokes,NC
90056,Los Angeles,CA
27053,Westfield,NC
2324,Bridgewater,MA
27985,Winfall,NC
15201,Pittsburgh,PA
30575,Talmo,GA
11576,Roslyn,NY
91786,Upland,CA
73054,Luther,OK
7650,Palisades Park,NJ
65543,Lynchburg,MO
61338,Manlius,IL
56727,Grygla,MN
34474,Ocala,FL
56525,Comstock,MN
80434,Cowdrey,CO
6067,Rocky Hill,CT
26271,Hendricks,WV
16151,Sheakleyville,PA
72414,Black Oak,AR
96707,Kapolei,HI
55089,Welch,MN
12726,Cochecton,NY
71743,Gurdon,AR
68045,Oakland,NE
76301,Wichita Falls,TX
94621,Oakland,CA
45420,Dayton,OH
55733,Esko,MN
32439,Freeport,FL
13820,Oneonta,NY
75661,Karnack,TX
94503,American Canyon,CA
6010,Bristol,CT
5340,Bondville,VT
48089,Warren,MI
72655,Mount Judea,AR
22125,Occoquan,VA
30276,Senoia,GA
57219,Bristol,SD
67154,Whitewater,KS
73731,Dacoma,OK
59740,McAllister,MT
16240,Mayport,PA
43050,Mount Vernon,OH
81124,Capulin,CO
45361,Potsdam,OH
41189,Tollesboro,KY
4363,Windsor,ME
13302,Altmar,NY
17884,Washingtonville,PA
57048,Montrose,SD
61068,Rochelle,IL
95131,San Jose,CA
59215,Circle,MT
68063,Uehling,NE
25611,Bruno,WV
41834,Littcarr,KY
34135,Bonita Springs,FL
50257,Truro,IA
54205,Casco,WI
74014,Broken Arrow,OK
20032,Washington,DC
94706,Albany,CA
39581,Pascagoula,MS
17853,Mount Pleasant Mills,PA
58845,Grenora,ND
32744,Lake Helen,FL
67485,Tipton,KS
59749,Sheridan,MT
79701,Midland,TX
95493,Witter Springs,CA
20019,Washington,DC
59856,Paradise,MT
41001,Alexandria,KY
58571,Stanton,ND
6051,New Britain,CT
29583,Pamplico,SC
31037,McRae Helena,GA
45229,Cincinnati,OH
59221,Fairview,MT
24012,Roanoke,VA
44004,Ashtabula,OH
49098,Watervliet,MI
24363,Mouth Of Wilson,VA
29355,Kinards,SC
10604,West Harrison,NY
45775,Rutland,OH
29340,Gaffney,SC
60193,Schaumburg,IL
48324,West Bloomfield,MI
14732,Ellington,NY
67752,Quinter,KS
75435,Deport,TX
79904,El Paso,TX
25901,Oak Hill,WV
77099,Houston,TX
85173,Superior,AZ
57555,Mission,SD
58737,Flaxton,ND
39845,Donalsonville,GA
18088,Walnutport,PA
59547,Zurich,MT
28615,Creston,NC
73766,Pond Creek,OK
92004,Borrego Springs,CA
34242,Sarasota,FL
25168,Red House,WV
33133,Miami,FL
48738,Greenbush,MI
43127,Haydenville,OH
54855,Marengo,WI
97022,Eagle Creek,OR
93721,Fresno,CA
55032,Harris,MN
72142,Scott,AR
15909,Johnstown,PA
66838,Burdick,KS
12306,Schenectady,NY
65714,Nixa,MO
99158,Oakesdale,WA
54657,Steuben,WI
98682,Vancouver,WA
4843,Camden,ME
70068,La Place,LA
97504,Medford,OR
46222,Indianapolis,IN
61085,Stockton,IL
68943,Hardy,NE
5760,Orwell,VT
40019,Eminence,KY
19952,Harrington,DE
56458,Lake George,MN
70806,Baton Rouge,LA
99114,Colville,WA
80742,New Raymer,CO
99517,Anchorage,AK
63860,Kewanee,MO
24853,Kimball,WV
92618,Irvine,CA
48854,Mason,MI
77048,Houston,TX
36266,Lineville,AL
4453,Lagrange,ME
42140,Gamaliel,KY
72577,Sidney,AR
73150,Oklahoma City,OK
53913,Baraboo,WI
15434,Elco,PA
48197,Ypsilanti,MI
59327,Forsyth,MT
44843,Lucas,OH
90822,Long Beach,CA
8077,Riverton,NJ
10282,New York,NY
78585,Salineno,TX
58077,Walcott,ND
94903,San Rafael,CA
29101,McBee,SC
17224,Fort Loudon,PA
83467,Salmon,ID
75770,Larue,TX
14701,Jamestown,NY
16870,Port Matilda,PA
82515,Hudson,WY
60417,Crete,IL
89040,Overton,NV
45653,Minford,OH
59418,Buffalo,MT
36033,Georgiana,AL
61285,Thomson,IL
10970,Pomona,NY
44708,Canton,OH
7730,Hazlet,NJ
36901,Bellamy,AL
4496,Winterport,ME
4071,Raymond,ME
45359,Pleasant Hill,OH
10801,New Rochelle,NY
55731,Ely,MN
56166,Revere,MN
14043,Depew,NY
45642,Jasper,OH
32667,Micanopy,FL
7869,Randolph,NJ
12922,Childwold,NY
62098,Wrights,IL
10502,Ardsley,NY
49935,Iron River,MI
60018,Des Plaines,IL
18328,Dingmans Ferry,PA
73110,Oklahoma City,OK
69037,Max,NE
68003,Ashland,NE
78562,La Villa,TX
5602,Montpelier,VT
49821,Daggett,MI
63121,Saint Louis,MO
82844,Wolf,WY
54435,Gleason,WI
45066,Springboro,OH
91744,La Puente,CA
81151,Sanford,CO
45760,Middleport,OH
46970,Peru,IN
5773,Wallingford,VT
95490,Willits,CA
74854,Maud,OK
64444,Edgerton,MO
87310,Brimhall,NM
3048,Greenville,NH
73858,Shattuck,OK
29010,Bishopville,SC
98640,Ocean Park,WA
64015,Blue Springs,MO
61077,Seward,IL
33351,Fort Lauderdale,FL
38105,Memphis,TN
8089,Waterford Works,NJ
36912,Lisman,AL
46943,Laketon,IN
12886,Wevertown,NY
17109,Harrisburg,PA
85546,Safford,AZ
3230,Danbury,NH
95060,Santa Cruz,CA
38380,Sugar Tree,TN
46637,South Bend,IN
72365,Marked Tree,AR
16253,Seminole,PA
15015,Bradfordwoods,PA
74553,Kiowa,OK
57724,Camp Crook,SD
74425,Canadian,OK
5075,Thetford Center,VT
74843,Fitzhugh,OK
45337,Laura,OH
94129,San Francisco,CA
20566,Washington,DC
87530,El Rito,NM
34949,Fort Pierce,FL
71675,Wilmar,AR
47834,Brazil,IN
46526,Goshen,IN
45806,Lima,OH
16694,Wood,PA
6022,Collinsville,CT
26629,Little Birch,WV
84041,Layton,UT
4942,Harmony,ME
92399,Yucaipa,CA
2858,Oakland,RI
48893,Weidman,MI
63877,Steele,MO
65637,Dora,MO
57471,Roscoe,SD
56218,Boyd,MN
18443,Milanville,PA
37917,Knoxville,TN
67122,Piedmont,KS
87571,Taos,NM
58064,Page,ND
65034,Fortuna,MO
11740,Greenlawn,NY
42055,Kuttawa,KY
60536,Millbrook,IL
4347,Hallowell,ME
15701,Indiana,PA
42275,Roundhill,KY
26435,Simpson,WV
53559,Marshall,WI
6750,Bantam,CT
32060,Live Oak,FL
98802,East Wenatchee,WA
21403,Annapolis,MD
97449,Lakeside,OR
67073,Lehigh,KS
60960,Rankin,IL
15717,Blairsville,PA
41601,Allen,KY
88316,Capitan,NM
36548,Leroy,AL
24558,Halifax,VA
45622,Creola,OH
13643,Great Bend,NY
45360,Port Jefferson,OH
47620,Mount Vernon,IN
77984,Shiner,TX
24139,Pittsville,VA
55121,Saint Paul,MN
97123,Hillsboro,OR
95662,Orangevale,CA
63434,Bethel,MO
49052,Fulton,MI
92114,San Diego,CA
12401,Kingston,NY
97477,Springfield,OR
55615,Tofte,MN
62939,Goreville,IL
56518,Bluffton,MN
2180,Stoneham,MA
38670,Sledge,MS
12515,Clintondale,NY
6118,East Hartford,CT
27820,Conway,NC
14555,Sodus Point,NY
59024,Custer,MT
24656,Vansant,VA
96857,Schofield Barracks,HI
23509,Norfolk,VA
37354,Madisonville,TN
23435,Suffolk,VA
22735,Reva,VA
93616,Del Rey,CA
63633,Centerville,MO
65001,Argyle,MO
65584,Saint Robert,MO
84713,Beaver,UT
39631,Centreville,MS
68720,Brunswick,NE
38583,Sparta,TN
72166,Tichnor,AR
49765,Onaway,MI
26385,Lost Creek,WV
75490,Trenton,TX
21817,Crisfield,MD
27937,Gates,NC
92277,Twentynine Palms,CA
13903,Binghamton,NY
1053,Leeds,MA
75020,Denison,TX
50576,Rembrandt,IA
21161,White Hall,MD
15535,Clearville,PA
19977,Smyrna,DE
72761,Siloam Springs,AR
42159,Oakland,KY
65255,Hallsville,MO
72565,Oxford,AR
77356,Montgomery,TX
28173,Waxhaw,NC
39096,Lorman,MS
3851,Milton,NH
64744,El Dorado Springs,MO
11379,Middle Village,NY
18602,Bear Creek,PA
17055,Mechanicsburg,PA
10065,New York,NY
47420,Avoca,IN
16601,Altoona,PA
58210,Adams,ND
45304,Arcanum,OH
24740,Princeton,WV
36113,Montgomery,AL
32301,Tallahassee,FL
15443,Hibbs,PA
31046,Juliette,GA
31094,Warthen,GA
68355,Falls City,NE
95626,Elverta,CA
62684,Sherman,IL
87583,Villanueva,NM
80862,Wild Horse,CO
50327,Pleasant Hill,IA
66106,Kansas City,KS
28580,Snow Hill,NC
75486,Sumner,TX
8805,Bound Brook,NJ
8088,Vincentown,NJ
59932,Somers,MT
89102,Las Vegas,NV
44695,Bowerston,OH
55044,Lakeville,MN
33478,Jupiter,FL
76021,Bedford,TX
48157,Luna Pier,MI
17749,McEwensville,PA
91606,North Hollywood,CA
71456,Natchez,LA
30439,Metter,GA
97737,Gilchrist,OR
82620,Alcova,WY
32086,Saint Augustine,FL
54748,Jim Falls,WI
45410,Dayton,OH
98558,Mckenna,WA
54220,Manitowoc,WI
36005,Banks,AL
80864,Yoder,CO
38347,Jacks Creek,TN
92807,Anaheim,CA
67065,Isabel,KS
24590,Scottsville,VA
54876,Stone Lake,WI
16828,Centre Hall,PA
82932,Farson,WY
51009,Calumet,IA
48458,Mount Morris,MI
48202,Detroit,MI
50201,Nevada,IA
13417,New York Mills,NY
85308,Glendale,AZ
62373,Sutter,IL
33185,Miami,FL
44301,Akron,OH
44074,Oberlin,OH
35464,Gainesville,AL
47637,Tennyson,IN
38659,Potts Camp,MS
77445,Hempstead,TX
71282,Tallulah,LA
76177,Fort Worth,TX
61616,Peoria Heights,IL
92861,Villa Park,CA
95403,Santa Rosa,CA
6779,Oakville,CT
44830,Fostoria,OH
3858,Newton,NH
37311,Cleveland,TN
7424,Little Falls,NJ
62859,McLeansboro,IL
39730,Aberdeen,MS
71034,Hall Summit,LA
7720,Bradley Beach,NJ
985,Carolina,PR
46930,Fowlerton,IN
3579,Errol,NH
98641,Oysterville,WA
10506,Bedford,NY
80293,Denver,CO
24816,Big Sandy,WV
21001,Aberdeen,MD
75134,Lancaster,TX
62677,Pleasant Plains,IL
36052,Mathews,AL
50173,Montour,IA
15747,Home,PA
7874,Stanhope,NJ
53527,Cottage Grove,WI
24592,South Boston,VA
43081,Westerville,OH
78802,Uvalde,TX
37754,Heiskell,TN
52336,Springville,IA
93930,King City,CA
75247,Dallas,TX
43983,Piedmont,OH
1011,Chester,MA
81525,Mack,CO
19475,Spring City,PA
74108,Tulsa,OK
70815,Baton Rouge,LA
5682,Worcester,VT
22480,Irvington,VA
12841,Huletts Landing,NY
32827,Orlando,FL
49802,Kingsford,MI
45167,Ripley,OH
64098,Weston,MO
76870,Priddy,TX
58265,Neche,ND
84024,Echo,UT
67428,Canton,KS
96720,Hilo,HI
63021,Ballwin,MO
23838,Chesterfield,VA
41093,Wallingford,KY
66740,Galesburg,KS
97364,Neotsu,OR
64053,Independence,MO
99632,Mountain Village,AK
15116,Glenshaw,PA
8724,Brick,NJ
30052,Loganville,GA
83212,Arbon,ID
11789,Sound Beach,NY
22732,Radiant,VA
45715,Beverly,OH
79256,Roaring Springs,TX
65334,Hughesville,MO
32003,Fleming Island,FL
12410,Big Indian,NY
3752,Goshen,NH
45115,Decatur,OH
90717,Lomita,CA
93517,Bridgeport,CA
32570,Milton,FL
64498,Westboro,MO
10460,Bronx,NY
16048,North Washington,PA
12435,Greenfield Park,NY
30170,Roopville,GA
12124,New Baltimore,NY
49805,Allouez,MI
43017,Dublin,OH
27916,Aydlett,NC
64012,Belton,MO
76651,Italy,TX
13424,Oriskany,NY
71424,Elmer,LA
8822,Flemington,NJ
87106,Albuquerque,NM
63827,Bragg City,MO
38152,Memphis,TN
17042,Lebanon,PA
53070,Oostburg,WI
17522,Ephrata,PA
95605,West Sacramento,CA
80224,Denver,CO
42262,Oak Grove,KY
20553,Washington,DC
12812,Blue Mountain Lake,NY
71457,Natchitoches,LA
63116,Saint Louis,MO
77457,Matagorda,TX
74073,Sperry,OK
99738,Eagle,AK
17512,Columbia,PA
18828,Lawton,PA
30542,Flowery Branch,GA
97842,Imnaha,OR
48735,Gagetown,MI
20624,Clements,MD
55007,Brook Park,MN
13210,Syracuse,NY
54947,Larsen,WI
63847,Gibson,MO
35987,Steele,AL
54227,Maribel,WI
96117,Litchfield,CA
7017,East Orange,NJ
40383,Versailles,KY
98207,Everett,WA
1237,Lanesborough,MA
58224,Dahlen,ND
46038,Fishers,IN
80521,Fort Collins,CO
7047,North Bergen,NJ
93452,San Simeon,CA
73099,Yukon,OK
28544,Midway Park,NC
78379,Riviera,TX
80127,Littleton,CO
84111,Salt Lake City,UT
53581,Richland Center,WI
73048,Hydro,OK
42130,Eighty Eight,KY
12451,Leeds,NY
43040,Marysville,OH
85263,Rio Verde,AZ
27371,Troy,NC
75935,Center,TX
15621,Calumet,PA
25287,West Columbia,WV
20737,Riverdale,MD
13123,North Bay,NY
32464,Westville,FL
23117,Mineral,VA
61356,Princeton,IL
35406,Tuscaloosa,AL
62339,Golden,IL
59858,Philipsburg,MT
48722,Bridgeport,MI
12887,Whitehall,NY
53104,Bristol,WI
45838,Elgin,OH
44130,Cleveland,OH
48213,Detroit,MI
77017,Houston,TX
20623,Cheltenham,MD
57376,Tripp,SD
24620,Hurley,VA
66507,Maple Hill,KS
54873,Solon Springs,WI
66852,Gridley,KS
59731,Garrison,MT
11368,Corona,NY
18372,Tannersville,PA
31082,Sandersville,GA
44902,Mansfield,OH
76043,Glen Rose,TX
8554,Roebling,NJ
12943,Keene Valley,NY
78114,Floresville,TX
99647,Pedro Bay,AK
29853,Williston,SC
57657,Trail City,SD
89139,Las Vegas,NV
3844,Hampton Falls,NH
13441,Rome,NY
23426,Sanford,VA
90066,Los Angeles,CA
66951,Kensington,KS
43947,Shadyside,OH
8555,Roosevelt,NJ
62962,Miller City,IL
2837,Little Compton,RI
42079,Sedalia,KY
7405,Butler,NJ
90650,Norwalk,CA
15425,Connellsville,PA
84522,Emery,UT
78066,Rio Medina,TX
54931,Dale,WI
18847,Susquehanna,PA
84745,La Verkin,UT
50662,Oelwein,IA
65756,Stotts City,MO
66619,Topeka,KS
11217,Brooklyn,NY
49126,Sodus,MI
75492,Windom,TX
97125,Manning,OR
64427,Bolckow,MO
23440,Tangier,VA
54482,Stevens Point,WI
76051,Grapevine,TX
62864,Mount Vernon,IL
4648,Jonesboro,ME
50644,Independence,IA
18424,Gouldsboro,PA
33127,Miami,FL
17579,Strasburg,PA
72858,Pottsville,AR
83854,Post Falls,ID
74558,Nashoba,OK
58042,Harwood,ND
30814,Harlem,GA
22520,Montross,VA
83873,Wallace,ID
47955,Linden,IN
46074,Westfield,IN
19120,Philadelphia,PA
70577,Port Barre,LA
63147,Saint Louis,MO
15759,Marion Center,PA
24733,Lashmeet,WV
77082,Houston,TX
39561,McHenry,MS
22181,Vienna,VA
12032,Caroga Lake,NY
85354,Tonopah,AZ
88350,Timberon,NM
72546,Ida,AR
41049,Hillsboro,KY
72958,Waldron,AR
38134,Memphis,TN
80218,Denver,CO
79247,Odell,TX
17009,Burnham,PA
52658,Wever,IA
62501,Argenta,IL
92117,San Diego,CA
94541,Hayward,CA
4605,Ellsworth,ME
95118,San Jose,CA
84664,Mapleton,UT
95645,Knights Landing,CA
75904,Lufkin,TX
97543,Wilderville,OR
36767,Orrville,AL
6336,Gilman,CT
51654,Thurman,IA
74826,Asher,OK
48630,Houghton Lake Heights,MI
88004,Las Cruces,NM
28772,Rosman,NC
76682,Riesel,TX
3466,West Chesterfield,NH
82833,Big Horn,WY
34739,Kenansville,FL
76308,Wichita Falls,TX
25159,Poca,WV
26224,Helvetia,WV
1504,Blackstone,MA
50561,Lytton,IA
78359,Gregory,TX
65791,Thayer,MO
97205,Portland,OR
12719,Barryville,NY
73645,Erick,OK
1420,Fitchburg,MA
16002,Butler,PA
14081,Irving,NY
62888,Tamaroa,IL
66772,Savonburg,KS
62221,Belleville,IL
23401,Keller,VA
17403,York,PA
13744,Castle Creek,NY
979,Carolina,PR
82411,Burlington,WY
59454,Kevin,MT
18240,Nesquehoning,PA
28174,Wingate,NC
53531,Deerfield,WI
55447,Minneapolis,MN
89119,Las Vegas,NV
54759,Pepin,WI
41010,Corinth,KY
53810,Glen Haven,WI
52580,Packwood,IA
7666,Teaneck,NJ
83221,Blackfoot,ID
28581,Stacy,NC
88256,Loving,NM
12040,Cherry Plain,NY
16646,Hastings,PA
3580,Franconia,NH
52216,Clarence,IA
55603,Finland,MN
33470,Loxahatchee,FL
63127,Saint Louis,MO
72828,Briggsville,AR
56557,Mahnomen,MN
44851,New London,OH
72429,Fisher,AR
84006,Bingham Canyon,UT
17036,Hummelstown,PA
31066,Musella,GA
75028,Flower Mound,TX
93307,Bakersfield,CA
12911,Keeseville,NY
93067,Summerland,CA
49960,Rockland,MI
47564,Otwell,IN
48860,Muir,MI
14826,Cohocton,NY
41004,Brooksville,KY
84718,Cannonville,UT
68753,Mills,NE
70639,Evans,LA
44103,Cleveland,OH
67220,Wichita,KS
53714,Madison,WI
58481,Spiritwood,ND
10302,Staten Island,NY
12196,West Sand Lake,NY
49779,Rogers City,MI
8260,Wildwood,NJ
86504,Fort Defiance,AZ
54491,White Lake,WI
61036,Galena,IL
48444,Imlay City,MI
48207,Detroit,MI
73080,Purcell,OK
23236,Richmond,VA
55910,Altura,MN
22716,Castleton,VA
64029,Grain Valley,MO
63047,Hematite,MO
67337,Coffeyville,KS
48819,Dansville,MI
82513,Dubois,WY
89044,Henderson,NV
63101,Saint Louis,MO
65324,Climax Springs,MO
82434,Otto,WY
17801,Sunbury,PA
67206,Wichita,KS
96046,Hyampom,CA
20705,Beltsville,MD
40964,Mary Alice,KY
15673,North Apollo,PA
43357,West Liberty,OH
53578,Prairie Du Sac,WI
36518,Chatom,AL
49894,Wells,MI
91754,Monterey Park,CA
70589,Washington,LA
6065,Riverton,CT
72438,Leachville,AR
37742,Greenback,TN
99926,Metlakatla,AK
46563,Plymouth,IN
4760,Monticello,ME
77871,Normangee,TX
24290,Weber City,VA
43126,Harrisburg,OH
59728,Elliston,MT
59922,Lakeside,MT
42459,Sturgis,KY
33434,Boca Raton,FL
14830,Corning,NY
61725,Carlock,IL
26325,Auburn,WV
7514,Paterson,NJ
42716,Buffalo,KY
43442,Lindsey,OH
4085,Steep Falls,ME
58467,Medina,ND
63743,Daisy,MO
23222,Richmond,VA
79053,Lazbuddie,TX
6043,Bolton,CT
49908,Baraga,MI
67055,Greenwich,KS
12778,Smallwood,NY
21216,Baltimore,MD
49927,Gaastra,MI
54661,Trempealeau,WI
2638,Dennis,MA
10804,New Rochelle,NY
3846,Jackson,NH
78675,Willow City,TX
75439,Ector,TX
15713,Aultman,PA
74534,Centrahoma,OK
96129,Beckwourth,CA
12071,Fultonham,NY
67401,Salina,KS
66062,Olathe,KS
20862,Brinklow,MD
76449,Graford,TX
54449,Marshfield,WI
35127,Pleasant Grove,AL
66407,Belvue,KS
54557,Presque Isle,WI
55043,Lakeland,MN
21769,Middletown,MD
49921,Dodgeville,MI
6057,New Hartford,CT
94576,Deer Park,CA
43229,Columbus,OH
60449,Monee,IL
27455,Greensboro,NC
4258,Minot,ME
48208,Detroit,MI
61469,Oquawka,IL
65641,Eagle Rock,MO
71409,Boyce,LA
86507,Lukachukai,AZ
1245,Monterey,MA
65035,Freeburg,MO
67733,Edson,KS
96746,Kapaa,HI
54733,Dallas,WI
43025,Hebron,OH
26601,Sutton,WV
14839,Greenwood,NY
10465,Bronx,NY
91011,La Canada Flintridge,CA
10001,New York,NY
42032,Columbus,KY
98836,Monitor,WA
62674,Palmyra,IL
57776,Redig,SD
15143,Sewickley,PA
28571,Oriental,NC
31087,Sparta,GA
97212,Portland,OR
15477,Roscoe,PA
28762,Old Fort,NC
58472,Montpelier,ND
61849,Homer,IL
29850,Vaucluse,SC
79379,Whiteface,TX
26815,Sugar Grove,WV
74445,Morris,OK
65775,West Plains,MO
55976,Stewartville,MN
8802,Asbury,NJ
71404,Atlanta,LA
84764,Bryce,UT
21220,Middle River,MD
33584,Seffner,FL
1521,Holland,MA
41616,David,KY
20565,Washington,DC
99693,Whittier,AK
34947,Fort Pierce,FL
67841,Ensign,KS
78212,San Antonio,TX
42206,Auburn,KY
28135,Polkton,NC
91320,Newbury Park,CA
59430,Denton,MT
53045,Brookfield,WI
75160,Terrell,TX
93003,Ventura,CA
4901,Waterville,ME
45883,Saint Henry,OH
37144,Petersburg,TN
5048,Hartland,VT
24437,Fort Defiance,VA
70340,Amelia,LA
22101,McLean,VA
73461,Wapanucka,OK
17311,Codorus,PA
66514,Milford,KS
98290,Snohomish,WA
84755,Mount Carmel,UT
28282,Charlotte,NC
57772,Porcupine,SD
98392,Suquamish,WA
40849,Lejunior,KY
76937,Eola,TX
52540,Brighton,IA
31090,Toomsboro,GA
99003,Chattaroy,WA
43467,West Millgrove,OH
64422,Amity,MO
52585,Richland,IA
44142,Brookpark,OH
71238,Eros,LA
46044,Frankton,IN
29905,Parris Island,SC
56576,Richville,MN
68781,Tilden,NE
62001,Alhambra,IL
50112,Grinnell,IA
28785,Waynesville,NC
39480,Soso,MS
68783,Verdigre,NE
81130,Creede,CO
57061,Sinai,SD
28307,Fort Bragg,NC
3285,Thornton,NH
95945,Grass Valley,CA
48071,Madison Heights,MI
18458,Shohola,PA
2807,Block Island,RI
38967,Winona,MS
70519,Cade,LA
12972,Peru,NY
51543,Kimballton,IA
12548,Modena,NY
84033,Henefer,UT
50525,Clarion,IA
677,Rincon,PR
3064,Nashua,NH
85925,Eagar,AZ
99684,Unalakleet,AK
32577,Molino,FL
4029,Sebago,ME
32542,Eglin Afb,FL
57235,Florence,SD
59747,Pony,MT
49677,Reed City,MI
30286,Thomaston,GA
64448,Faucett,MO
97839,Lexington,OR
2152,Winthrop,MA
2462,Newton Lower Falls,MA
14092,Lewiston,NY
5343,Jamaica,VT
30452,Register,GA
47464,Stinesville,IN
17925,Brockton,PA
68001,Abie,NE
56641,Federal Dam,MN
12193,Westerlo,NY
38235,McLemoresville,TN
15479,Smithton,PA
97389,Tangent,OR
22902,Charlottesville,VA
91737,Rancho Cucamonga,CA
95697,Yolo,CA
44836,Green Springs,OH
71082,Vivian,LA
14227,Buffalo,NY
31216,Macon,GA
24822,Clear Fork,WV
58021,Davenport,ND
17772,Turbotville,PA
87750,Valmora,NM
83846,Mullan,ID
28537,Hobucken,NC
46553,New Paris,IN
56552,Hitterdal,MN
44471,Struthers,OH
72404,Jonesboro,AR
42025,Benton,KY
25028,Bob White,WV
37085,Lascassas,TN
50527,Curlew,IA
33714,Saint Petersburg,FL
27587,Wake Forest,NC
78959,Waelder,TX
57767,Owanka,SD
35950,Albertville,AL
98166,Seattle,WA
65257,Higbee,MO
4736,Caribou,ME
90405,Santa Monica,CA
49401,Allendale,MI
33896,Davenport,FL
97731,Chemult,OR
21557,Rawlings,MD
27253,Graham,NC
59729,Ennis,MT
3447,Fitzwilliam,NH
98901,Yakima,WA
3590,North Stratford,NH
24630,North Tazewell,VA
28464,Teachey,NC
99835,Sitka,AK
61485,Victoria,IL
77511,Alvin,TX
37370,Riceville,TN
76459,Jermyn,TX
83213,Arco,ID
57314,Artesian,SD
60619,Chicago,IL
72141,Scotland,AR
76640,Elm Mott,TX
41619,Drift,KY
75759,Cuney,TX
98342,Indianola,WA
78657,Horseshoe Bay,TX
36321,Cowarts,AL
76107,Fort Worth,TX
61855,Milmine,IL
772,Loiza,PR
44136,Strongsville,OH
80813,Cripple Creek,CO
37618,Bluff City,TN
57046,Mission Hill,SD
63080,Sullivan,MO
18056,Hereford,PA
61257,Hillsdale,IL
30206,Concord,GA
27893,Wilson,NC
33841,Fort Meade,FL
33868,Polk City,FL
85143,San Tan Valley,AZ
23805,Petersburg,VA
59713,Avon,MT
27889,Washington,NC
94123,San Francisco,CA
10953,Mountainville,NY
24826,Cucumber,WV
30568,Rabun Gap,GA
8831,Monroe Township,NJ
28670,Ronda,NC
33549,Lutz,FL
43348,Russells Point,OH
97220,Portland,OR
18234,Lattimer Mines,PA
11793,Wantagh,NY
62899,Xenia,IL
38635,Holly Springs,MS
87943,Winston,NM
92130,San Diego,CA
28651,Millers Creek,NC
30522,Cherry Log,GA
58103,Fargo,ND
22554,Stafford,VA
33462,Lake Worth,FL
49404,Coopersville,MI
73736,Fairmont,OK
20685,Saint Leonard,MD
73658,Oakwood,OK
32692,Suwannee,FL
1590,Sutton,MA
35133,Remlap,AL
50157,Malcom,IA
39439,Heidelberg,MS
63454,Maywood,MO
56378,Sauk Centre,MN
59442,Fort Benton,MT
31567,West Green,GA
78611,Burnet,TX
53115,Delavan,WI
31560,Screven,GA
77611,Bridge City,TX
38332,Enville,TN
77485,Wallis,TX
75668,Lone Star,TX
2571,Wareham,MA
15380,Wind Ridge,PA
71243,Fort Necessity,LA
14897,Whitesville,NY
78251,San Antonio,TX
39157,Ridgeland,MS
31049,Kite,GA
18615,Falls,PA
56683,Tenstrike,MN
94904,Greenbrae,CA
23304,Battery Park,VA
2891,Westerly,RI
88001,Las Cruces,NM
35990,Walnut Grove,AL
78852,Eagle Pass,TX
61114,Rockford,IL
44093,Williamsfield,OH
12832,Granville,NY
10964,Palisades,NY
53086,Slinger,WI
98943,South Cle Elum,WA
54173,Suamico,WI
35035,Brierfield,AL
63939,Fairdealing,MO
73145,Oklahoma City,OK
72683,Vendor,AR
71842,Horatio,AR
7465,Wanaque,NJ
35053,Crane Hill,AL
76950,Sonora,TX
94301,Palo Alto,CA
53151,New Berlin,WI
64633,Carrollton,MO
27923,Coinjock,NC
26808,High View,WV
13110,Marietta,NY
53204,Milwaukee,WI
52078,Worthington,IA
85262,Scottsdale,AZ
57226,Clear Lake,SD
11550,Hempstead,NY
83254,Montpelier,ID
33330,Fort Lauderdale,FL
41007,California,KY
66522,Oneida,KS
35052,Cook Springs,AL
19503,Bally,PA
85383,Peoria,AZ
61312,Arlington,IL
97023,Estacada,OR
12567,Pine Plains,NY
67863,Marienthal,KS
17728,Cogan Station,PA
57040,Lesterville,SD
71940,Delight,AR
968,Guaynabo,PR
34203,Bradenton,FL
67853,Ingalls,KS
96819,Honolulu,HI
18960,Sellersville,PA
73601,Clinton,OK
62463,Stewardson,IL
90601,Whittier,CA
95722,Meadow Vista,CA
13420,Old Forge,NY
62540,Kincaid,IL
69156,Potter,NE
63113,Saint Louis,MO
99019,Liberty Lake,WA
2915,Riverside,RI
16940,Nelson,PA
61262,Lynn Center,IL
92081,Vista,CA
63830,Caruthersville,MO
91791,West Covina,CA
18977,Washington Crossing,PA
8104,Camden,NJ
52247,Kalona,IA
98537,Cosmopolis,WA
18972,Upper Black Eddy,PA
33921,Boca Grande,FL
75237,Dallas,TX
70541,Grand Coteau,LA
35758,Madison,AL
8005,Barnegat,NJ
55814,Duluth,MN
51040,Onawa,IA
85320,Aguila,AZ
70344,Chauvin,LA
62819,Buckner,IL
94850,Richmond,CA
21239,Baltimore,MD
42259,Mammoth Cave,KY
8836,Martinsville,NJ
54979,Van Dyne,WI
80020,Broomfield,CO
72459,Ravenden,AR
84620,Aurora,UT
83619,Fruitland,ID
48451,Linden,MI
1913,Amesbury,MA
14550,Silver Springs,NY
54151,Niagara,WI
24086,Eggleston,VA
60475,Steger,IL
76664,Mart,TX
98589,Tenino,WA
99321,Beverly,WA
25059,Dixie,WV
43613,Toledo,OH
80459,Kremmling,CO
47060,West Harrison,IN
46819,Fort Wayne,IN
28532,Havelock,NC
80235,Denver,CO
21010,Gunpowder,MD
18092,Zionsville,PA
41760,Scuddy,KY
64083,Raymore,MO
53954,Pardeeville,WI
89433,Sun Valley,NV
83321,Castleford,ID
41250,Pilgrim,KY
36106,Montgomery,AL
43932,Irondale,OH
59803,Missoula,MT
32962,Vero Beach,FL
79087,Texline,TX
54739,Elk Mound,WI
47654,Mackey,IN
5669,Roxbury,VT
49057,Hartford,MI
25501,Alkol,WV
11359,Bayside,NY
13901,Binghamton,NY
12738,Glen Wild,NY
52340,Tiffin,IA
61421,Bradford,IL
43736,Fairview,OH
34139,Everglades City,FL
77059,Houston,TX
61455,Macomb,IL
79376,Tokio,TX
76011,Arlington,TX
48411,Atlas,MI
5149,Ludlow,VT
77016,Houston,TX
94603,Oakland,CA
60419,Dolton,IL
71833,Dierks,AR
32708,Winter Springs,FL
35074,Green Pond,AL
74804,Shawnee,OK
18068,Old Zionsville,PA
97414,Broadbent,OR
48179,South Rockwood,MI
32966,Vero Beach,FL
78355,Falfurrias,TX
61704,Bloomington,IL
35447,Carrollton,AL
72852,Oark,AR
24271,Nickelsville,VA
56330,Foreston,MN
22469,Hague,VA
75471,Pickton,TX
72926,Boles,AR
23109,Mathews,VA
41121,Argillite,KY
76106,Fort Worth,TX
21654,Oxford,MD
28114,Mooresboro,NC
92365,Newberry Springs,CA
78730,Austin,TX
16667,Osterburg,PA
93245,Lemoore,CA
15662,Luxor,PA
72583,Viola,AR
2109,Boston,MA
38962,Tippo,MS
71279,Start,LA
23423,Quinby,VA
15748,Homer City,PA
66095,Williamsburg,KS
32506,Pensacola,FL
31712,Arabi,GA
67135,Sedgwick,KS
97489,Walterville,OR
60459,Burbank,IL
8863,Fords,NJ
90242,Downey,CA
98053,Redmond,WA
54232,Saint Nazianz,WI
58380,Tolna,ND
45727,Dexter City,OH
3103,Manchester,NH
24273,Norton,VA
44420,Girard,OH
51576,Underwood,IA
8609,Trenton,NJ
92121,San Diego,CA
61741,Forrest,IL
46127,Falmouth,IN
25432,Millville,WV
20675,Pomfret,MD
67574,Rozel,KS
55012,Center City,MN
61731,Cropsey,IL
28604,Banner Elk,NC
67347,Havana,KS
43445,Martin,OH
10075,New York,NY
17070,New Cumberland,PA
62673,Oakford,IL
34996,Stuart,FL
77614,Deweyville,TX
56048,Janesville,MN
55906,Rochester,MN
35005,Adamsville,AL
70638,Elizabeth,LA
85053,Phoenix,AZ
47581,Shoals,IN
2725,Somerset,MA
33193,Miami,FL
24714,Beeson,WV
24563,Hurt,VA
39156,Redwood,MS
44505,Youngstown,OH
37874,Sweetwater,TN
37779,Luttrell,TN
92249,Heber,CA
26560,Baxter,WV
58784,Stanley,ND
83115,Daniel,WY
25813,Beaver,WV
44507,Youngstown,OH
62089,Taylor Springs,IL
83025,Teton Village,WY
71247,Hodge,LA
13806,Meridale,NY
88022,Arenas Valley,NM
58750,Lansford,ND
10910,Arden,NY
19053,Feasterville Trevose,PA
45629,Franklin Furnace,OH
55374,Rogers,MN
7762,Spring Lake,NJ
24521,Amherst,VA
21758,Knoxville,MD
27403,Greensboro,NC
37714,Caryville,TN
60115,Dekalb,IL
6024,East Canaan,CT
40157,Payneville,KY
12542,Marlboro,NY
75554,Avery,TX
55790,Tower,MN
18821,Great Bend,PA
7735,Keyport,NJ
15136,McKees Rocks,PA
19113,Philadelphia,PA
46301,Beverly Shores,IN
50146,Linden,IA
46391,Westville,IN
14812,Beaver Dams,NY
43432,Graytown,OH
3746,Cornish Flat,NH
77072,Houston,TX
68325,Byron,NE
95946,Penn Valley,CA
50271,Williams,IA
31792,Thomasville,GA
24871,Pageton,WV
69033,Imperial,NE
51365,Wallingford,IA
65059,Mokane,MO
51636,Coin,IA
89502,Reno,NV
27110,Winston Salem,NC
46745,Hoagland,IN
17075,Newton Hamilton,PA
11566,Merrick,NY
58428,Dawson,ND
12151,Round Lake,NY
1344,Erving,MA
66753,McCune,KS
13087,Little York,NY
60482,Worth,IL
46051,Lapel,IN
67544,Hoisington,KS
82604,Casper,WY
4671,Robbinston,ME
62952,Jonesboro,IL
68647,Monroe,NE
62214,Addieville,IL
20136,Bristow,VA
28671,Rutherford College,NC
75641,Easton,TX
59035,Fort Smith,MT
76371,Munday,TX
88009,Playas,NM
38401,Columbia,TN
53209,Milwaukee,WI
56519,Borup,MN
59326,Fallon,MT
25446,Summit Point,WV
17237,Mont Alto,PA
44052,Lorain,OH
62375,Timewell,IL
98952,White Swan,WA
34442,Hernando,FL
43548,New Bavaria,OH
49058,Hastings,MI
12460,Oak Hill,NY
53181,Twin Lakes,WI
19736,Yorklyn,DE
18519,Scranton,PA
47930,Clarks Hill,IN
31025,Elko,GA
56347,Long Prairie,MN
95829,Sacramento,CA
87578,Truchas,NM
72084,Leola,AR
36250,Alexandria,AL
98337,Bremerton,WA
95313,Crows Landing,CA
75071,Mckinney,TX
54750,Maiden Rock,WI
87041,Pena Blanca,NM
51345,Harris,IA
45646,Latham,OH
87564,San Cristobal,NM
39885,Sasser,GA
52745,Dixon,IA
64473,Oregon,MO
62807,Alma,IL
61377,Wenona,IL
98837,Moses Lake,WA
15783,West Lebanon,PA
38119,Memphis,TN
4040,Harrison,ME
67101,Maize,KS
64106,Kansas City,MO
12777,Forestburgh,NY
75571,Omaha,TX
54849,Lake Nebagamon,WI
70125,New Orleans,LA
68633,Dodge,NE
16374,Kennerdell,PA
91731,El Monte,CA
622,Boqueron,PR
77642,Port Arthur,TX
57315,Avon,SD
12872,Severance,NY
98357,Neah Bay,WA
2764,North Dighton,MA
79371,Sudan,TX
55991,Zumbro Falls,MN
79336,Levelland,TX
87112,Albuquerque,NM
59828,Corvallis,MT
68827,Chapman,NE
29673,Piedmont,SC
18219,Conyngham,PA
46785,Saint Joe,IN
15078,Slovan,PA
2912,Providence,RI
58568,Selfridge,ND
33070,Tavernier,FL
72119,North Little Rock,AR
5491,Vergennes,VT
30277,Sharpsburg,GA
14513,Newark,NY
15338,Greensboro,PA
51455,Manning,IA
20812,Glen Echo,MD
72395,Wilson,AR
56068,Minnesota Lake,MN
37066,Gallatin,TN
54813,Barronett,WI
41043,Foster,KY
97358,Lyons,OR
61349,Ohio,IL
53706,Madison,WI
20630,Drayden,MD
33487,Boca Raton,FL
32829,Orlando,FL
95130,San Jose,CA
35592,Vernon,AL
56436,Benedict,MN
37373,Sale Creek,TN
70730,Ethel,LA
58788,Towner,ND
52621,Crawfordsville,IA
55070,Saint Francis,MN
24210,Abingdon,VA
60457,Hickory Hills,IL
34956,Indiantown,FL
13318,Cassville,NY
57763,Oelrichs,SD
8348,Port Elizabeth,NJ
40442,Kings Mountain,KY
27299,Linwood,NC
70053,Gretna,LA
16695,Woodbury,PA
75225,Dallas,TX
71360,Pineville,LA
12589,Wallkill,NY
16803,State College,PA
93627,Helm,CA
83448,Sugar City,ID
63303,Saint Charles,MO
95713,Colfax,CA
75928,Bon Wier,TX
95917,Biggs,CA
30078,Snellville,GA
49344,Shelbyville,MI
13813,Nineveh,NY
62053,Kampsville,IL
84067,Roy,UT
86338,Skull Valley,AZ
60926,Claytonville,IL
16201,Kittanning,PA
20390,Washington,DC
27818,Como,NC
38004,Atoka,TN
92067,Rancho Santa Fe,CA
8873,Somerset,NJ
62532,Elwin,IL
94520,Concord,CA
78373,Port Aransas,TX
85941,Whiteriver,AZ
4358,South China,ME
37891,Whitesburg,TN
70818,Baton Rouge,LA
40943,Girdler,KY
14885,Troupsburg,NY
16343,Reno,PA
25972,Leslie,WV
85118,Gold Canyon,AZ
77384,Conroe,TX
37347,Jasper,TN
65025,Clarksburg,MO
66618,Topeka,KS
85335,El Mirage,AZ
29577,Myrtle Beach,SC
59427,Cut Bank,MT
4422,Charleston,ME
43416,Elmore,OH
29702,Blacksburg,SC
3291,West Nottingham,NH
72947,Mulberry,AR
35022,Bessemer,AL
77373,Spring,TX
1007,Belchertown,MA
48873,Pewamo,MI
75447,Ivanhoe,TX
50042,Brayton,IA
48894,Westphalia,MI
18844,Springville,PA
97836,Heppner,OR
60917,Buckingham,IL
56626,Bena,MN
49419,Hamilton,MI
31321,Pembroke,GA
21826,Fruitland,MD
54962,Ogdensburg,WI
68017,Ceresco,NE
38745,Grace,MS
85620,Naco,AZ
67018,Bluff City,KS
47943,Fair Oaks,IN
30533,Dahlonega,GA
57236,Garden City,SD
77705,Beaumont,TX
1243,Middlefield,MA
23163,Susan,VA
62881,Salem,IL
95542,Garberville,CA
40056,Pewee Valley,KY
4983,Strong,ME
1560,South Grafton,MA
26422,Reynoldsville,WV
62201,East Saint Louis,IL
54656,Sparta,WI
12578,Salt Point,NY
28716,Canton,NC
21074,Hampstead,MD
57426,Barnard,SD
97219,Portland,OR
11790,Stony Brook,NY
63935,Doniphan,MO
61523,Chillicothe,IL
19130,Philadelphia,PA
42141,Glasgow,KY
98282,Camano Island,WA
39168,Taylorsville,MS
49230,Brooklyn,MI
8825,Frenchtown,NJ
99927,Point Baker,AK
48885,Sidney,MI
31315,Fort Stewart,GA
6438,Haddam,CT
99569,Clarks Point,AK
59436,Fairfield,MT
10940,Middletown,NY
85708,Tucson,AZ
10036,New York,NY
5043,East Thetford,VT
61436,Gilson,IL
24421,Churchville,VA
62570,Tovey,IL
12790,Wurtsboro,NY
95382,Turlock,CA
24801,Welch,WV
59736,Jackson,MT
12986,Tupper Lake,NY
17538,Landisville,PA
60136,Gilberts,IL
67762,Weskan,KS
24554,Gladys,VA
93010,Camarillo,CA
51035,Marcus,IA
52076,Strawberry Point,IA
17103,Harrisburg,PA
49256,Morenci,MI
34134,Bonita Springs,FL
60087,Waukegan,IL
87321,Ramah,NM
19082,Upper Darby,PA
55805,Duluth,MN
66758,Neosho Falls,KS
16050,Petrolia,PA
6456,Middle Haddam,CT
41560,Robinson Creek,KY
76632,Chilton,TX
23709,Portsmouth,VA
30445,Mount Vernon,GA
59724,Dell,MT
51637,College Springs,IA
35114,Alabaster,AL
97494,Wilbur,OR
24265,Keokee,VA
25054,Dawes,WV
22931,Covesville,VA
14850,Ithaca,NY
57717,Belle Fourche,SD
95064,Santa Cruz,CA
72123,Patterson,AR
67673,Waldo,KS
7833,Delaware,NJ
43062,Pataskala,OH
48638,Saginaw,MI
98260,Langley,WA
46814,Fort Wayne,IN
23840,Dewitt,VA
54524,Fifield,WI
60467,Orland Park,IL
22972,Somerset,VA
59252,Outlook,MT
37330,Estill Springs,TN
82937,Lyman,WY
72322,Caldwell,AR
48877,Riverdale,MI
56647,Hines,MN
99118,Curlew,WA
8098,Woodstown,NJ
73728,Cherokee,OK
32643,High Springs,FL
76887,Voca,TX
53126,Franksville,WI
1028,East Longmeadow,MA
15627,Derry,PA
91303,Canoga Park,CA
5776,West Rupert,VT
71759,Norphlet,AR
45120,Felicity,OH
31906,Columbus,GA
97627,Keno,OR
33176,Miami,FL
21202,Baltimore,MD
12961,Moriah Center,NY
25051,Costa,WV
28523,Cove City,NC
98443,Tacoma,WA
12927,Cranberry Lake,NY
31909,Columbus,GA
56369,Rockville,MN
48807,Bannister,MI
35244,Birmingham,AL
50141,Laurel,IA
62275,Pocahontas,IL
28328,Clinton,NC
83210,Aberdeen,ID
31041,Ideal,GA
15038,Elrama,PA
27043,Pinnacle,NC
70767,Port Allen,LA
72206,Little Rock,AR
77990,Tivoli,TX
87323,Thoreau,NM
29920,Saint Helena Island,SC
18634,Nanticoke,PA
71701,Camden,AR
40409,Brodhead,KY
80532,Glen Haven,CO
64726,Blairstown,MO
61458,Maquon,IL
67112,Nashville,KS
46172,Roachdale,IN
46341,Hebron,IN
30666,Statham,GA
38765,Panther Burn,MS
5404,Winooski,VT
21849,Parsonsburg,MD
60047,Lake Zurich,IL
18083,Stockertown,PA
2148,Malden,MA
840,Frederiksted,VI
66616,Topeka,KS
78353,Encino,TX
14865,Montour Falls,NY
29320,Arcadia,SC
24572,Madison Heights,VA
51463,Templeton,IA
84756,Newcastle,UT
62336,Ferris,IL
22043,Falls Church,VA
41048,Hebron,KY
13654,Heuvelton,NY
62940,Gorham,IL
60969,Union Hill,IL
93430,Cayucos,CA
56201,Willmar,MN
95665,Pine Grove,CA
41828,Kite,KY
58214,Arvilla,ND
58503,Bismarck,ND
81019,Colorado City,CO
49201,Jackson,MI
46919,Converse,IN
27576,Selma,NC
78257,San Antonio,TX
49464,Zeeland,MI
43406,Bradner,OH
4006,Biddeford Pool,ME
83657,Ola,ID
29630,Central,SC
97050,Rufus,OR
56165,Reading,MN
19454,North Wales,PA
66716,Bronson,KS
79235,Floydada,TX
39046,Canton,MS
91901,Alpine,CA
76373,Oklaunion,TX
30605,Athens,GA
30223,Griffin,GA
80116,Franktown,CO
83252,Malad City,ID
62354,Nauvoo,IL
46368,Portage,IN
68002,Arlington,NE
35187,Wilton,AL
33071,Coral Springs,FL
99645,Palmer,AK
8750,Sea Girt,NJ
86547,Round Rock,AZ
16936,Millerton,PA
49616,Benzonia,MI
15290,Pittsburgh,PA
4047,Parsonsfield,ME
36032,Fort Deposit,AL
49831,Felch,MI
87327,Zuni,NM
32351,Quincy,FL
48117,Carleton,MI
45882,Rockford,OH
59424,Coffee Creek,MT
7460,Stockholm,NJ
78016,Devine,TX
41044,Germantown,KY
71232,Delhi,LA
98823,Ephrata,WA
12581,Stanfordville,NY
19966,Millsboro,DE
59720,Cameron,MT
1542,Rochdale,MA
82243,Veteran,WY
77422,Brazoria,TX
80305,Boulder,CO
53210,Milwaukee,WI
70631,Cameron,LA
29346,Glendale,SC
61052,Monroe Center,IL
44653,Midvale,OH
48889,Sumner,MI
64855,Oronogo,MO
59874,Trout Creek,MT
43310,Belle Center,OH
56303,Saint Cloud,MN
61931,Humboldt,IL
99754,Koyukuk,AK
30518,Buford,GA
4345,Gardiner,ME
29899,McCormick,SC
41719,Bonnyman,KY
14225,Buffalo,NY
66072,Parker,KS
76126,Fort Worth,TX
29115,Orangeburg,SC
55404,Minneapolis,MN
77598,Webster,TX
75973,Shelbyville,TX
67340,Dearing,KS
18109,Allentown,PA
37385,Tellico Plains,TN
32905,Palm Bay,FL
40806,Baxter,KY
58538,Fort Yates,ND
4742,Fort Fairfield,ME
92305,Angelus Oaks,CA
24150,Ripplemead,VA
97017,Colton,OR
41833,Linefork,KY
49030,Burr Oak,MI
54974,Rosendale,WI
99343,Mesa,WA
63130,Saint Louis,MO
73127,Oklahoma City,OK
5141,Cambridgeport,VT
19121,Philadelphia,PA
62634,Elkhart,IL
79517,Fluvanna,TX
26624,Gassaway,WV
55087,Warsaw,MN
50607,Aurora,IA
84540,Thompson,UT
14803,Alfred Station,NY
2746,New Bedford,MA
51241,Larchwood,IA
73705,Enid,OK
46104,Arlington,IN
60491,Homer Glen,IL
60111,Clare,IL
56373,Royalton,MN
20637,Hughesville,MD
21837,Mardela Springs,MD
33778,Largo,FL
53146,New Berlin,WI
15778,Timblin,PA
70753,Lettsworth,LA
68034,Kennard,NE
59029,Fromberg,MT
7004,Fairfield,NJ
30606,Athens,GA
52218,Coggon,IA
7052,West Orange,NJ
8752,Seaside Park,NJ
65627,Cedarcreek,MO
11021,Great Neck,NY
75094,Plano,TX
13092,Locke,NY
74857,Newalla,OK
37764,Kodak,TN
17240,Newburg,PA
28515,Bayboro,NC
92408,San Bernardino,CA
17520,East Petersburg,PA
61833,Tilton,IL
85911,Cibecue,AZ
90036,Los Angeles,CA
53063,Newton,WI
15951,Saint Michael,PA
2562,Sagamore Beach,MA
95817,Sacramento,CA
13115,Minetto,NY
24471,Port Republic,VA
52738,Columbus Junction,IA
98438,Mcchord Afb,WA
97229,Portland,OR
82520,Lander,WY
80649,Orchard,CO
35976,Guntersville,AL
15037,Elizabeth,PA
78837,Comstock,TX
57460,Mansfield,SD
59274,Vida,MT
64129,Kansas City,MO
87305,Gallup,NM
72769,Summers,AR
75709,Tyler,TX
66738,Fulton,KS
4730,Houlton,ME
12070,Fort Johnson,NY
2119,Roxbury,MA
33403,West Palm Beach,FL
87319,Mentmore,NM
41531,Hardy,KY
13476,Vernon,NY
15310,Aleppo,PA
97102,Arch Cape,OR
37064,Franklin,TN
2713,Cuttyhunk,MA
5673,Waitsfield,VT
13491,West Winfield,NY
97905,Durkee,OR
82648,Powder River,WY
28386,Shannon,NC
62965,Muddy,IL
95337,Manteca,CA
67552,Lewis,KS
83607,Caldwell,ID
13825,Otego,NY
12833,Greenfield Center,NY
14261,Buffalo,NY
13326,Cooperstown,NY
1033,Granby,MA
30148,Marble Hill,GA
48616,Chesaning,MI
72130,Prim,AR
32693,Trenton,FL
12456,Mount Marion,NY
71667,Star City,AR
44111,Cleveland,OH
56239,Ghent,MN
13159,Tully,NY
58048,Hunter,ND
15320,Carmichaels,PA
26575,Hundred,WV
76874,Roosevelt,TX
98576,Rainier,WA
51012,Cherokee,IA
96814,Honolulu,HI
73555,Manitou,OK
4455,Lee,ME
80644,Kersey,CO
97215,Portland,OR
44288,Windham,OH
57751,Keystone,SD
47952,Kingman,IN
59336,Ismay,MT
92657,Newport Coast,CA
70782,Tunica,LA
85535,Eden,AZ
24534,Clover,VA
97481,Tenmile,OR
76305,Wichita Falls,TX
60177,South Elgin,IL
75457,Mount Vernon,TX
20690,Tall Timbers,MD
82831,Arvada,WY
7836,Flanders,NJ
28027,Concord,NC
2066,Scituate,MA
97886,Weston,OR
55320,Clearwater,MN
72001,Adona,AR
62475,West Liberty,IL
56207,Alberta,MN
31072,Pitts,GA
42102,Bowling Green,KY
35466,Gordo,AL
46792,Warren,IN
23897,Yale,VA
37143,Pegram,TN
44039,North Ridgeville,OH
53937,Hillpoint,WI
37909,Knoxville,TN
24593,Spout Spring,VA
28382,Roseboro,NC
17254,Scotland,PA
96091,Trinity Center,CA
80801,Anton,CO
38125,Memphis,TN
19732,Rockland,DE
25938,Victor,WV
33328,Fort Lauderdale,FL
28510,Arapahoe,NC
17370,York Haven,PA
51019,Danbury,IA
92883,Corona,CA
76453,Gordon,TX
49788,Kincheloe,MI
30622,Bogart,GA
20018,Washington,DC
78942,Giddings,TX
92886,Yorba Linda,CA
12590,Wappingers Falls,NY
13623,Chippewa Bay,NY
40903,Artemus,KY
30628,Colbert,GA
15227,Pittsburgh,PA
44118,Cleveland,OH
72626,Cotter,AR
74640,Hunter,OK
41804,Blackey,KY
55427,Minneapolis,MN
37339,Gruetli Laager,TN
66418,Delia,KS
30132,Dallas,GA
38109,Memphis,TN
65325,Cole Camp,MO
7846,Johnsonburg,NJ
50545,Hardy,IA
83624,Grand View,ID
50843,Cumberland,IA
54914,Appleton,WI
11365,Fresh Meadows,NY
4022,Denmark,ME
28749,Little Switzerland,NC
83012,Moose,WY
69341,Gering,NE
32601,Gainesville,FL
70130,New Orleans,LA
36048,Louisville,AL
30541,Epworth,GA
75428,Commerce,TX
10454,Bronx,NY
67553,Liebenthal,KS
83851,Plummer,ID
63621,Arcadia,MO
61870,Ridge Farm,IL
95524,Bayside,CA
56021,Courtland,MN
44874,Savannah,OH
50849,Greenfield,IA
48127,Dearborn Heights,MI
21208,Pikesville,MD
55979,Utica,MN
10974,Sloatsburg,NY
45346,New Madison,OH
49402,Branch,MI
38453,Dellrose,TN
41666,Wayland,KY
52049,Garnavillo,IA
56319,Carlos,MN
55373,Rockford,MN
75093,Plano,TX
73644,Elk City,OK
76059,Keene,TX
54755,Mondovi,WI
37851,Pruden,TN
78879,Rio Frio,TX
4629,East Blue Hill,ME
25507,Ceredo,WV
43711,Ava,OH
91302,Calabasas,CA
70450,Mount Hermon,LA
12989,Vermontville,NY
35768,Scottsboro,AL
30756,Varnell,GA
52807,Davenport,IA
55331,Excelsior,MN
7843,Hopatcong,NJ
17502,Bainbridge,PA
54159,Porterfield,WI
84760,Paragonah,UT
33334,Fort Lauderdale,FL
62874,Orient,IL
94118,San Francisco,CA
25149,Ottawa,WV
83238,Geneva,ID
97326,Blodgett,OR
27542,Kenly,NC
93427,Buellton,CA
47578,Sandborn,IN
3076,Pelham,NH
44511,Youngstown,OH
35160,Talladega,AL
32563,Gulf Breeze,FL
97067,Welches,OR
31756,Hartsfield,GA
96014,Callahan,CA
32140,Florahome,FL
65286,Triplett,MO
54230,Reedsville,WI
4253,Livermore,ME
63631,Caledonia,MO
19033,Folsom,PA
19152,Philadelphia,PA
99722,Arctic Village,AK
24019,Roanoke,VA
34434,Dunnellon,FL
79027,Dimmitt,TX
81059,Model,CO
37379,Soddy Daisy,TN
37848,Powder Springs,TN
79714,Andrews,TX
1505,Boylston,MA
68934,Deweese,NE
23039,Crozier,VA
77089,Houston,TX
17739,Jersey Mills,PA
13607,Alexandria Bay,NY
53538,Fort Atkinson,WI
66024,Elwood,KS
63089,Villa Ridge,MO
34481,Ocala,FL
36512,Bucks,AL
7081,Springfield,NJ
17516,Conestoga,PA
59076,Sanders,MT
92285,Landers,CA
71350,Mansura,LA
20710,Bladensburg,MD
26101,Parkersburg,WV
49112,Edwardsburg,MI
30308,Atlanta,GA
49457,Twin Lake,MI
38749,Indianola,MS
80024,Dupont,CO
49508,Grand Rapids,MI
70126,New Orleans,LA
35115,Montevallo,AL
3456,Marlow,NH
35582,Red Bay,AL
27874,Scotland Neck,NC
36732,Demopolis,AL
51237,George,IA
65332,Green Ridge,MO
48162,Monroe,MI
17535,Kinzers,PA
11786,Shoreham,NY
53588,Spring Green,WI
47203,Columbus,IN
49321,Comstock Park,MI
61079,Shirland,IL
24901,Lewisburg,WV
93633,Kings Canyon National Pk,CA
25102,Handley,WV
6085,Unionville,CT
37331,Etowah,TN
97840,Oxbow,OR
95634,Georgetown,CA
76518,Buckholts,TX
29479,Saint Stephen,SC
14472,Honeoye Falls,NY
55420,Minneapolis,MN
57034,Hudson,SD
42367,Powderly,KY
72428,Etowah,AR
49437,Montague,MI
29161,Timmonsville,SC
71671,Warren,AR
84023,Dutch John,UT
27832,Gaston,NC
55720,Cloquet,MN
4849,Lincolnville,ME
15928,Davidsville,PA
50863,Tingley,IA
97722,Diamond,OR
27040,Pfafftown,NC
84088,West Jordan,UT
72644,Lead Hill,AR
28543,Tarawa Terrace,NC
30297,Forest Park,GA
5252,East Arlington,VT
26823,Capon Springs,WV
78956,Schulenburg,TX
38603,Ashland,MS
48327,Waterford,MI
16301,Oil City,PA
21755,Jefferson,MD
49431,Ludington,MI
15459,Markleysburg,PA
28411,Wilmington,NC
55082,Stillwater,MN
44285,Wayland,OH
62458,Saint Elmo,IL
71260,Marion,LA
95224,Avery,CA
92321,Cedar Glen,CA
62666,Middletown,IL
38673,Taylor,MS
64841,Duenweg,MO
28341,Faison,NC
18419,Factoryville,PA
12440,High Falls,NY
71827,Buckner,AR
56011,Belle Plaine,MN
55972,Saint Charles,MN
81122,Bayfield,CO
7450,Ridgewood,NJ
88353,Vaughn,NM
42056,La Center,KY
48206,Detroit,MI
49709,Atlanta,MI
43356,Waldo,OH
54141,Little Suamico,WI
78264,San Antonio,TX
46990,Urbana,IN
21919,Earleville,MD
44101,Cleveland,OH
5839,Glover,VT
46510,Claypool,IN
96161,Truckee,CA
50025,Audubon,IA
61411,Adair,IL
51527,Defiance,IA
70506,Lafayette,LA
61877,Sidney,IL
39402,Hattiesburg,MS
40144,Harned,KY
71351,Marksville,LA
98502,Olympia,WA
43950,Saint Clairsville,OH
35226,Birmingham,AL
47352,Lewisville,IN
78235,San Antonio,TX
93260,Posey,CA
48875,Portland,MI
69150,Madrid,NE
43130,Lancaster,OH
49670,Northport,MI
72014,Beedeville,AR
28344,Godwin,NC
59716,Big Sky,MT
70514,Baldwin,LA
59643,Toston,MT
42649,Strunk,KY
30319,Atlanta,GA
33173,Miami,FL
13037,Chittenango,NY
28660,Olin,NC
85542,Peridot,AZ
71644,Grady,AR
21787,Taneytown,MD
14894,Wellsburg,NY
87533,Espanola,NM
95694,Winters,CA
33993,Cape Coral,FL
62643,Hartsburg,IL
98315,Silverdale,WA
47610,Chandler,IN
93545,Lone Pine,CA
13760,Endicott,NY
12210,Albany,NY
84638,Leamington,UT
16352,Tiona,PA
39854,Georgetown,GA
43945,Salineville,OH
78614,Cost,TX
78712,Austin,TX
34431,Dunnellon,FL
20785,Hyattsville,MD
44030,Conneaut,OH
38554,Crawford,TN
13454,Salisbury Center,NY
95659,Nicolaus,CA
64471,New Hampton,MO
44431,Leetonia,OH
71949,Jessieville,AR
72479,Weiner,AR
77077,Houston,TX
88424,Grenville,NM
59748,Ramsay,MT
15765,Penn Run,PA
21669,Taylors Island,MD
54634,Hillsboro,WI
46158,Mooresville,IN
96791,Waialua,HI
40013,Coxs Creek,KY
40229,Louisville,KY
48307,Rochester,MI
37357,Morrison,TN
48505,Flint,MI
13148,Seneca Falls,NY
80210,Denver,CO
32256,Jacksonville,FL
80802,Arapahoe,CO
61418,Biggsville,IL
16402,Bear Lake,PA
52656,West Point,IA
95231,French Camp,CA
44401,Berlin Center,OH
81655,Wolcott,CO
90505,Torrance,CA
46710,Avilla,IN
41655,Printer,KY
71965,Pencil Bluff,AR
50703,Waterloo,IA
11356,College Point,NY
42728,Columbia,KY
62833,Ellery,IL
64166,Kansas City,MO
53227,Milwaukee,WI
83802,Avery,ID
63333,Bellflower,MO
5868,Troy,VT
27343,Semora,NC
62883,Scheller,IL
30173,Silver Creek,GA
28555,Maysville,NC
47884,Universal,IN
77003,Houston,TX
21085,Joppa,MD
74467,Wagoner,OK
58065,Pillsbury,ND
40339,Keene,KY
33547,Lithia,FL
76798,Waco,TX
19026,Drexel Hill,PA
24439,Goshen,VA
97907,Huntington,OR
67844,Fowler,KS
37762,Jellico,TN
72540,Guion,AR
66211,Leawood,KS
57066,Tyndall,SD
8553,Rocky Hill,NJ
46952,Marion,IN
54150,Neopit,WI
6512,East Haven,CT
21659,Rhodesdale,MD
13846,Treadwell,NY
28227,Charlotte,NC
47630,Newburgh,IN
78592,Santa Maria,TX
80433,Conifer,CO
84014,Centerville,UT
51055,Sloan,IA
19063,Media,PA
65287,Wooldridge,MO
45123,Greenfield,OH
37342,Hillsboro,TN
96786,Wahiawa,HI
92596,Winchester,CA
35584,Sipsey,AL
97127,Lafayette,OR
43925,East Springfield,OH
2917,Smithfield,RI
24058,Belspring,VA
71603,Pine Bluff,AR
16801,State College,PA
7863,Oxford,NJ
85137,Kearny,AZ
40146,Irvington,KY
29848,Troy,SC
22844,New Market,VA
77565,Kemah,TX
40155,Muldraugh,KY
20184,Upperville,VA
15753,La Jose,PA
95002,Alviso,CA
54234,Sister Bay,WI
53517,Blue Mounds,WI
7068,Roseland,NJ
33020,Hollywood,FL
56501,Detroit Lakes,MN
61006,Ashton,IL
44705,Canton,OH
77336,Huffman,TX
44805,Ashland,OH
73530,Davidson,OK
40152,McDaniels,KY
64063,Lees Summit,MO
49026,Bloomingdale,MI
58054,Lisbon,ND
64638,Dawn,MO
26209,Snowshoe,WV
95219,Stockton,CA
68722,Butte,NE
53516,Blanchardville,WI
62869,Norris City,IL
83271,Rockland,ID
15558,Salisbury,PA
60164,Melrose Park,IL
57246,Labolt,SD
40921,Bryants Store,KY
96105,Chilcoot,CA
47342,Gaston,IN
43136,Lithopolis,OH
86544,Red Valley,AZ
19529,Kempton,PA
23943,Hampden Sydney,VA
45899,Wren,OH
32222,Jacksonville,FL
55713,Buhl,MN
96717,Hauula,HI
19127,Philadelphia,PA
77502,Pasadena,TX
28725,Dillsboro,NC
75089,Rowlett,TX
29372,Pacolet,SC
61350,Ottawa,IL
26707,Bayard,WV
47525,Derby,IN
13310,Bouckville,NY
31553,Nahunta,GA
55018,Dennison,MN
83450,Terreton,ID
74560,Pittsburg,OK
8619,Trenton,NJ
34606,Spring Hill,FL
31558,Saint Marys,GA
26542,Masontown,WV
95422,Clearlake,CA
85225,Chandler,AZ
87413,Bloomfield,NM
44024,Chardon,OH
48461,North Branch,MI
75098,Wylie,TX
28445,Holly Ridge,NC
37069,Franklin,TN
27104,Winston Salem,NC
4460,Medway,ME
33324,Fort Lauderdale,FL
96776,Paauilo,HI
29032,Cassatt,SC
10706,Hastings On Hudson,NY
8244,Somers Point,NJ
42324,Belton,KY
87108,Albuquerque,NM
71286,Transylvania,LA
33514,Center Hill,FL
64756,Jerico Springs,MO
47859,Marshall,IN
52765,New Liberty,IA
77523,Baytown,TX
74631,Blackwell,OK
55314,Buffalo Lake,MN
25567,Sumerco,WV
40503,Lexington,KY
43070,Rosewood,OH
62838,Farina,IL
98038,Maple Valley,WA
31549,Lumber City,GA
66404,Baileyville,KS
87577,Tres Piedras,NM
4102,Portland,ME
54521,Eagle River,WI
35481,Reform,AL
31078,Roberta,GA
39661,Roxie,MS
43045,Milford Center,OH
97530,Jacksonville,OR
27979,Sunbury,NC
7801,Dover,NJ
93531,Keene,CA
87730,Mills,NM
18255,Weatherly,PA
2346,Middleboro,MA
54161,Pound,WI
73852,Mooreland,OK
44481,Warren,OH
17088,Schaefferstown,PA
21851,Pocomoke City,MD
56260,Maynard,MN
60107,Streamwood,IL
18917,Dublin,PA
37206,Nashville,TN
85654,Rillito,AZ
73541,Fletcher,OK
15088,West Elizabeth,PA
79837,Dell City,TX
1031,Gilbertville,MA
37083,Lafayette,TN
48607,Saginaw,MI
38846,Glen,MS
27301,McLeansville,NC
93446,Paso Robles,CA
75497,Yantis,TX
84115,Salt Lake City,UT
49264,Onondaga,MI
12953,Malone,NY
18223,Ebervale,PA
56144,Jasper,MN
77987,Sweet Home,TX
2652,North Truro,MA
85929,Lakeside,AZ
14169,Wales Center,NY
78340,Bayside,TX
4666,Pembroke,ME
3817,Chocorua,NH
50006,Alden,IA
11554,East Meadow,NY
83857,Princeton,ID
77386,Spring,TX
98372,Puyallup,WA
95066,Scotts Valley,CA
50161,Maxwell,IA
16244,Nu Mine,PA
66779,Uniontown,KS
28718,Cedar Mountain,NC
35049,Cleveland,AL
17837,Lewisburg,PA
32619,Bell,FL
50235,Rippey,IA
56288,Spicer,MN
84631,Fillmore,UT
7604,Hasbrouck Heights,NJ
68836,Elm Creek,NE
62960,Metropolis,IL
37407,Chattanooga,TN
54738,Eleva,WI
72753,Prairie Grove,AR
15207,Pittsburgh,PA
82732,Wright,WY
99371,Washtucna,WA
35554,Eldridge,AL
18321,Bartonsville,PA
79755,Midkiff,TX
80907,Colorado Springs,CO
73840,Fargo,OK
74565,Savanna,OK
18625,Lake Winola,PA
43812,Coshocton,OH
81521,Fruita,CO
97739,La Pine,OR
28704,Arden,NC
18335,Marshalls Creek,PA
2149,Everett,MA
47367,Oakville,IN
49007,Kalamazoo,MI
69032,Hayes Center,NE
43620,Toledo,OH
40508,Lexington,KY
19372,Thorndale,PA
92281,Westmorland,CA
21201,Baltimore,MD
94535,Travis Afb,CA
57313,Armour,SD
38671,Southaven,MS
18324,Bushkill,PA
72732,Garfield,AR
19375,Unionville,PA
58475,Pettibone,ND
44814,Berlin Heights,OH
32189,Satsuma,FL
67447,Green,KS
62635,Emden,IL
28079,Indian Trail,NC
27851,Lucama,NC
58274,Portland,ND
66736,Fredonia,KS
58422,Cathay,ND
56226,Clontarf,MN
18629,Mehoopany,PA
54126,Greenleaf,WI
40360,Owingsville,KY
49440,Muskegon,MI
27839,Halifax,NC
44506,Youngstown,OH
59027,Emigrant,MT
95062,Santa Cruz,CA
57636,Lantry,SD
59043,Lame Deer,MT
86032,Joseph City,AZ
72083,Keo,AR
68532,Lincoln,NE
38668,Senatobia,MS
71378,Wisner,LA
41397,Zoe,KY
54842,Hawthorne,WI
99012,Fairfield,WA
15126,Imperial,PA
16218,Cowansville,PA
78220,San Antonio,TX
60402,Berwyn,IL
73527,Cache,OK
4210,Auburn,ME
16879,Winburne,PA
99782,Wainwright,AK
59446,Geraldine,MT
67634,Dorrance,KS
49241,Hanover,MI
66609,Topeka,KS
54519,Conover,WI
43560,Sylvania,OH
46539,Mentone,IN
48635,Lupton,MI
80125,Littleton,CO
12866,Saratoga Springs,NY
1034,Granville,MA
28606,Boomer,NC
43545,Napoleon,OH
70711,Albany,LA
77019,Houston,TX
80723,Brush,CO
45835,Dola,OH
71839,Garland City,AR
43610,Toledo,OH
98346,Kingston,WA
86505,Ganado,AZ
48146,Lincoln Park,MI
78615,Coupland,TX
49873,Perronville,MI
67491,Windom,KS
23294,Henrico,VA
85147,Sacaton,AZ
47359,Montpelier,IN
32169,New Smyrna Beach,FL
97038,Molalla,OR
92590,Temecula,CA
55933,Elkton,MN
35747,Grant,AL
33155,Miami,FL
70463,Sun,LA
32801,Orlando,FL
7028,Glen Ridge,NJ
53582,Ridgeway,WI
42151,Hestand,KY
28023,China Grove,NC
34946,Fort Pierce,FL
58060,Milnor,ND
23505,Norfolk,VA
49833,Little Lake,MI
99563,Chevak,AK
70031,Ama,LA
52659,Winfield,IA
95210,Stockton,CA
38317,Bruceton,TN
14507,Middlesex,NY
94508,Angwin,CA
39573,Perkinston,MS
65083,Ulman,MO
54665,Viroqua,WI
70438,Franklinton,LA
29045,Elgin,SC
5086,West Topsham,VT
75060,Irving,TX
25021,Bim,WV
6424,East Hampton,CT
33865,Ona,FL
49339,Pierson,MI
30425,Garfield,GA
67137,Severy,KS
22539,Reedville,VA
5736,Center Rutland,VT
58639,Hettinger,ND
57330,Delmont,SD
46135,Greencastle,IN
16230,Hawthorn,PA
75087,Rockwall,TX
19118,Philadelphia,PA
76102,Fort Worth,TX
79366,Ransom Canyon,TX
78650,McDade,TX
30625,Buckhead,GA
98814,Carlton,WA
51557,Mondamin,IA
65616,Branson,MO
46376,Schneider,IN
58741,Granville,ND
55962,Peterson,MN
68974,Ruskin,NE
78631,Harper,TX
38773,Shaw,MS
59913,Coram,MT
54751,Menomonie,WI
68305,Auburn,NE
50471,Rudd,IA
89014,Henderson,NV
61936,La Place,IL
12157,Schoharie,NY
97380,Siletz,OR
36264,Heflin,AL
28043,Forest City,NC
58701,Minot,ND
95211,Stockton,CA
18970,Trumbauersville,PA
58262,Mountain,ND
89120,Las Vegas,NV
43948,Smithfield,OH
87015,Edgewood,NM
7463,Waldwick,NJ
13132,Pennellville,NY
71969,Sims,AR
95453,Lakeport,CA
32819,Orlando,FL
37062,Fairview,TN
12092,Howes Cave,NY
13459,Sharon Springs,NY
62534,Findlay,IL
42757,Magnolia,KY
30450,Portal,GA
29450,Huger,SC
39169,Tchula,MS
49458,Walhalla,MI
76661,Marlin,TX
59337,Jordan,MT
14612,Rochester,NY
20653,Lexington Park,MD
38623,Darling,MS
57020,Crooks,SD
51351,Milford,IA
37207,Nashville,TN
23663,Hampton,VA
20650,Leonardtown,MD
28693,Warrensville,NC
33843,Frostproof,FL
49630,Empire,MI
5358,West Halifax,VT
7435,Newfoundland,NJ
62964,Mounds,IL
93263,Shafter,CA
57241,Hayti,SD
14221,Buffalo,NY
36067,Prattville,AL
15332,Finleyville,PA
43438,Kelleys Island,OH
46574,Walkerton,IN
65737,Reeds Spring,MO
75669,Long Branch,TX
87745,Sapello,NM
28124,Mount Pleasant,NC
99218,Spokane,WA
82052,Buford,WY
25139,Mount Carbon,WV
45042,Middletown,OH
15081,South Heights,PA
51431,Arthur,IA
15868,Weedville,PA
40177,West Point,KY
17314,Delta,PA
28107,Midland,NC
48353,Hartland,MI
29431,Bonneau,SC
6029,Ellington,CT
15006,Bairdford,PA
68041,Mead,NE
45319,Donnelsville,OH
33158,Miami,FL
42051,Hickory,KY
36551,Loxley,AL
87519,Cerro,NM
38848,Greenwood Springs,MS
92506,Riverside,CA
71355,Moreauville,LA
81057,McClave,CO
71647,Hermitage,AR
26215,Cleveland,WV
1562,Spencer,MA
79706,Midland,TX
49722,Conway,MI
16440,Venango,PA
50148,Liscomb,IA
47441,Linton,IN
42153,Holland,KY
74338,Colcord,OK
54307,Green Bay,WI
8012,Blackwood,NJ
53928,Doylestown,WI
65483,Houston,MO
45236,Cincinnati,OH
96123,Ravendale,CA
27954,Manteo,NC
85607,Douglas,AZ
77096,Houston,TX
40390,Wilmore,KY
97497,Wolf Creek,OR
45310,Burkettsville,OH
34207,Bradenton,FL
78749,Austin,TX
12864,Sabael,NY
15695,Wyano,PA
60608,Chicago,IL
13492,Whitesboro,NY
62561,Riverton,IL
53211,Milwaukee,WI
41667,Weeksbury,KY
38018,Cordova,TN
80601,Brighton,CO
19562,Topton,PA
75001,Addison,TX
36092,Wetumpka,AL
2739,Mattapoisett,MA
65779,Wheatland,MO
48529,Burton,MI
10588,Shrub Oak,NY
21678,Worton,MD
46774,New Haven,IN
63629,Bunker,MO
54832,Drummond,WI
67576,St John,KS
50652,Lincoln,IA
90068,Los Angeles,CA
48519,Burton,MI
96034,Gazelle,CA
63436,Center,MO
57312,Alpena,SD
63745,Dutchtown,MO
62924,De Soto,IL
32565,Jay,FL
98075,Sammamish,WA
72333,Elaine,AR
19012,Cheltenham,PA
82321,Baggs,WY
65604,Ash Grove,MO
54313,Green Bay,WI
48435,Fostoria,MI
22660,Toms Brook,VA
27248,Franklinville,NC
17353,Orrtanna,PA
43556,Sherwood,OH
93925,Chualar,CA
25688,North Matewan,WV
72802,Russellville,AR
60073,Round Lake,IL
97034,Lake Oswego,OR
40010,Buckner,KY
81642,Meredith,CO
31204,Macon,GA
35441,Akron,AL
22742,Sumerduck,VA
15864,Summerville,PA
72422,Corning,AR
95246,Mountain Ranch,CA
59003,Ashland,MT
21756,Keedysville,MD
28465,Oak Island,NC
47380,Ridgeville,IN
41035,Dry Ridge,KY
61037,Galt,IL
38359,Milledgeville,TN
40115,Custer,KY
5151,Perkinsville,VT
53118,Dousman,WI
47529,Elnora,IN
50574,Pocahontas,IA
29053,Gaston,SC
27549,Louisburg,NC
15345,Marianna,PA
6380,Taftville,CT
50636,Greene,IA
80652,Roggen,CO
95437,Fort Bragg,CA
13211,Syracuse,NY
49229,Britton,MI
13694,Waddington,NY
16125,Greenville,PA
38477,Prospect,TN
5663,Northfield,VT
58746,Kenmare,ND
21102,Manchester,MD
1834,Groveland,MA
68040,Malmo,NE
54760,Pigeon Falls,WI
21841,Newark,MD
37175,Stewart,TN
44022,Chagrin Falls,OH
5832,East Burke,VT
22722,Haywood,VA
8536,Plainsboro,NJ
7717,Avon By The Sea,NJ
4061,North Waterboro,ME
28582,Stella,NC
39819,Bainbridge,GA
28076,Henrietta,NC
45679,Seaman,OH
20510,Washington,DC
27127,Winston Salem,NC
75452,Leonard,TX
72534,Floral,AR
85926,Fort Apache,AZ
29915,Daufuskie Island,SC
66544,Vermillion,KS
2191,North Weymouth,MA
727,Caguas,PR
71291,West Monroe,LA
43072,Saint Paris,OH
1778,Wayland,MA
72427,Egypt,AR
95432,Elk,CA
28367,Norman,NC
73841,Fort Supply,OK
58273,Pisek,ND
67840,Englewood,KS
29153,Sumter,SC
962,Catano,PR
79907,El Paso,TX
29928,Hilton Head Island,SC
37076,Hermitage,TN
18453,Pleasant Mount,PA
11719,Brookhaven,NY
81084,Two Buttes,CO
71030,Gloster,LA
2301,Brockton,MA
48760,Silverwood,MI
97411,Bandon,OR
59222,Flaxville,MT
3779,Piermont,NH
2367,Plympton,MA
50174,Murray,IA
96059,Manton,CA
31063,Montezuma,GA
27106,Winston Salem,NC
57571,Saint Charles,SD
30240,Lagrange,GA
53202,Milwaukee,WI
41831,Leburn,KY
93241,Lamont,CA
50054,Colfax,IA
16314,Cochranton,PA
15853,Ridgway,PA
63747,Friedheim,MO
35119,New Castle,AL
83706,Boise,ID
57013,Canton,SD
26807,Franklin,WV
19137,Philadelphia,PA
93458,Santa Maria,CA
92243,El Centro,CA
98118,Seattle,WA
28650,Maiden,NC
48829,Edmore,MI
80525,Fort Collins,CO
83126,Smoot,WY
6451,Meriden,CT
71601,Pine Bluff,AR
45335,Jamestown,OH
58078,West Fargo,ND
91101,Pasadena,CA
37737,Friendsville,TN
46974,Roann,IN
72670,Ponca,AR
50477,Swaledale,IA
73009,Binger,OK
61104,Rockford,IL
12783,Swan Lake,NY
6790,Torrington,CT
15216,Pittsburgh,PA
1226,Dalton,MA
56343,Kensington,MN
70586,Ville Platte,LA
15446,Indian Head,PA
11598,Woodmere,NY
56711,Angle Inlet,MN
20677,Port Tobacco,MD
48423,Davison,MI
31820,Midland,GA
1350,Monroe Bridge,MA
74546,Haileyville,OK
24607,Breaks,VA
66050,Lecompton,KS
29582,North Myrtle Beach,SC
26143,Elizabeth,WV
78375,Premont,TX
66527,Powhattan,KS
73650,Hammon,OK
5253,East Dorset,VT
34238,Sarasota,FL
42127,Cave City,KY
8742,Point Pleasant Beach,NJ
19609,Reading,PA
43347,Rushsylvania,OH
48454,Melvin,MI
17246,Pleasant Hall,PA
66406,Beattie,KS
15104,Braddock,PA
51249,Sibley,IA
81410,Austin,CO
76016,Arlington,TX
56720,Donaldson,MN
41169,Russell,KY
21409,Annapolis,MD
18229,Jim Thorpe,PA
60951,Martinton,IL
58105,Fargo,ND
32127,Port Orange,FL
5652,Eden,VT
36695,Mobile,AL
52595,University Park,IA
15730,Coolspring,PA
76596,Gatesville,TX
27583,Timberlake,NC
24935,Forest Hill,WV
2769,Rehoboth,MA
81123,Blanca,CO
1229,Glendale,MA
43963,Tiltonsville,OH
14482,Le Roy,NY
17005,Berrysburg,PA
75832,Cayuga,TX
38761,Moorhead,MS
97707,Bend,OR
14425,Farmington,NY
61832,Danville,IL
72007,Austin,AR
78586,San Benito,TX
60460,Odell,IL
78633,Georgetown,TX
34974,Okeechobee,FL
57532,Fort Pierre,SD
95303,Ballico,CA
30288,Conley,GA
89012,Henderson,NV
27915,Avon,NC
1432,Ayer,MA
44662,Navarre,OH
30721,Dalton,GA
83440,Rexburg,ID
20723,Laurel,MD
62862,Mill Shoals,IL
21012,Arnold,MD
62908,Belknap,IL
32534,Pensacola,FL
97437,Elmira,OR
35577,Natural Bridge,AL
72301,West Memphis,AR
47403,Bloomington,IN
80470,Pine,CO
76469,Putnam,TX
95627,Esparto,CA
58570,Solen,ND
65203,Columbia,MO
11501,Mineola,NY
29624,Anderson,SC
71933,Bonnerdale,AR
55021,Faribault,MN
26105,Vienna,WV